{
  "type": "FeatureCollection",
  "features": [
    {
      "type": "Feature",
      "properties": {
        "fid": "a15",
        "Date": "",
        "Notes": "absence de trottoir",
        "Photo": " 20250911_144127.jpg"
      },
      "geometry": {
        "coordinates": [
          [
            [
              -0.7063589540161672,
              44.87552020253159
            ],
            [
              -0.7063435923409429,
              44.875513434458014
            ],
            [
              -0.7060949690083476,
              44.87579037626665
            ],
            [
              -0.7061142843337507,
              44.87580047899891
            ],
            [
              -0.7062619175005125,
              44.875632962490414
            ],
            [
              -0.7063589540161672,
              44.87552020253159
            ]
          ]
        ],
        "type": "Polygon"
      }
    },
    {
      "type": "Feature",
      "properties": {
        "fid": "a16",
        "Notes": "trottoir étroit déplacement potentiel du panneau",
        "Photo": "20250904_151527.jpg",
        "Date": ""
      },
      "geometry": {
        "coordinates": [
          [
            [
              -0.7003147468204247,
              44.87246951127861
            ],
            [
              -0.7003117651296265,
              44.87241471252423
            ],
            [
              -0.7003071932069815,
              44.87235258848784
            ],
            [
              -0.7002821470179867,
              44.87233314829032
            ],
            [
              -0.7002511374493281,
              44.87234639016509
            ],
            [
              -0.7002666422336858,
              44.872365548616386
            ],
            [
              -0.7002726056122981,
              44.87247176520893
            ],
            [
              -0.7003147468204247,
              44.87246951127861
            ]
          ]
        ],
        "type": "Polygon"
      }
    },
    {
      "type": "Feature",
      "properties": {
        "fid": "a1",
        "Notes": "souche",
        "Photo": "20250911_155216.jpg"
      },
      "geometry": {
        "coordinates": [
          [
            [
              -0.7082089634044451,
              44.86930966893315
            ],
            [
              -0.7082101928874955,
              44.86930962612614
            ],
            [
              -0.7082114105299466,
              44.86930949811737
            ],
            [
              -0.7082126046052306,
              44.86930928613963
            ],
            [
              -0.7082137636137451,
              44.86930899223437
            ],
            [
              -0.7082148763936004,
              44.869308619232086
            ],
            [
              -0.7082159322281143,
              44.86930817072497
            ],
            [
              -0.7082169209490212,
              44.86930765103242
            ],
            [
              -0.7082178330343962,
              44.86930706515934
            ],
            [
              -0.7082186597003584,
              44.86930641874801
            ],
            [
              -0.708219392985663,
              44.86930571802373
            ],
            [
              -0.7082200258283734,
              44.86930496973488
            ],
            [
              -0.7082205521338707,
              44.86930418108786
            ],
            [
              -0.708220966833549,
              44.869303359677794
            ],
            [
              -0.7082212659336278,
              44.86930251341529
            ],
            [
              -0.7082214465536145,
              44.86930165045035
            ],
            [
              -0.7082215069540454,
              44.869300779093784
            ],
            [
              -0.7082214465532365,
              44.86929990773723
            ],
            [
              -0.7082212659328864,
              44.86929904477232
            ],
            [
              -0.7082209668324727,
              44.86929819850989
            ],
            [
              -0.7082205521325008,
              44.869297377099905
            ],
            [
              -0.7082200258267625,
              44.86929658845299
            ],
            [
              -0.7082193929838732,
              44.86929584016424
            ],
            [
              -0.7082186596984582,
              44.869295139440105
            ],
            [
              -0.7082178330324589,
              44.86929449302891
            ],
            [
              -0.7082169209471209,
              44.869293907155956
            ],
            [
              -0.7082159322263244,
              44.86929338746353
            ],
            [
              -0.7082148763919894,
              44.86929293895655
            ],
            [
              -0.7082137636123752,
              44.86929256595435
            ],
            [
              -0.7082126046041544,
              44.8692922720492
            ],
            [
              -0.708211410529205,
              44.86929206007152
            ],
            [
              -0.7082101928871175,
              44.86929193206278
            ],
            [
              -0.7082089634044451,
              44.869291889255784
            ],
            [
              -0.7082077339217727,
              44.86929193206278
            ],
            [
              -0.708206516279685,
              44.86929206007152
            ],
            [
              -0.7082053222047359,
              44.8692922720492
            ],
            [
              -0.7082041631965149,
              44.86929256595435
            ],
            [
              -0.7082030504169006,
              44.86929293895655
            ],
            [
              -0.7082019945825657,
              44.86929338746353
            ],
            [
              -0.7082010058617692,
              44.869293907155956
            ],
            [
              -0.7082000937764312,
              44.86929449302891
            ],
            [
              -0.7081992671104318,
              44.869295139440105
            ],
            [
              -0.708198533825017,
              44.86929584016424
            ],
            [
              -0.7081979009821275,
              44.86929658845299
            ],
            [
              -0.7081973746763893,
              44.869297377099905
            ],
            [
              -0.7081969599764174,
              44.86929819850989
            ],
            [
              -0.7081966608760039,
              44.86929904477232
            ],
            [
              -0.7081964802556535,
              44.86929990773723
            ],
            [
              -0.7081964198548447,
              44.869300779093784
            ],
            [
              -0.7081964802552756,
              44.86930165045035
            ],
            [
              -0.7081966608752623,
              44.86930251341529
            ],
            [
              -0.708196959975341,
              44.869303359677794
            ],
            [
              -0.7081973746750194,
              44.86930418108786
            ],
            [
              -0.7081979009805168,
              44.86930496973488
            ],
            [
              -0.7081985338232271,
              44.86930571802373
            ],
            [
              -0.7081992671085316,
              44.86930641874801
            ],
            [
              -0.7082000937744939,
              44.86930706515934
            ],
            [
              -0.708201005859869,
              44.86930765103242
            ],
            [
              -0.7082019945807758,
              44.86930817072497
            ],
            [
              -0.7082030504152899,
              44.869308619232086
            ],
            [
              -0.708204163195145,
              44.86930899223437
            ],
            [
              -0.7082053222036595,
              44.86930928613963
            ],
            [
              -0.7082065162789436,
              44.86930949811737
            ],
            [
              -0.7082077339213947,
              44.86930962612614
            ],
            [
              -0.7082089634044451,
              44.86930966893315
            ]
          ]
        ],
        "type": "Polygon"
      }
    },
    {
      "type": "Feature",
      "properties": {
        "Notes": "souche",
        "Photo": "20250911_155317.jpg",
        "fid": "a2",
        "Date": ""
      },
      "geometry": {
        "coordinates": [
          [
            [
              -0.7082323968884054,
              44.869133750988105
            ],
            [
              -0.7082336616935739,
              44.869133706951146
            ],
            [
              -0.7082349143179716,
              44.86913357526437
            ],
            [
              -0.708236142698135,
              44.869133357196006
            ],
            [
              -0.7082373350040866,
              44.869133054846145
            ],
            [
              -0.7082384797532641,
              44.86913267112661
            ],
            [
              -0.708239565921103,
              44.869132209732825
            ],
            [
              -0.7082405830472108,
              44.86913167510826
            ],
            [
              -0.7082415213361053,
              44.86913107240165
            ],
            [
              -0.7082423717515511,
              44.869130407417366
            ],
            [
              -0.7082431261035832,
              44.86912968655962
            ],
            [
              -0.7082437771273804,
              44.86912891677064
            ],
            [
              -0.7082443185532306,
              44.8691281054639
            ],
            [
              -0.7082447451669107,
              44.86912726045276
            ],
            [
              -0.7082450528599024,
              44.86912638987511
            ],
            [
              -0.7082452386689585,
              44.869125502115125
            ],
            [
              -0.7082453008046422,
              44.869124605722405
            ],
            [
              -0.7082452386685585,
              44.86912370932969
            ],
            [
              -0.7082450528591177,
              44.86912282156974
            ],
            [
              -0.7082447451657716,
              44.869121950992174
            ],
            [
              -0.7082443185517809,
              44.86912110598112
            ],
            [
              -0.7082437771256757,
              44.869120294674495
            ],
            [
              -0.7082431261016889,
              44.86911952488563
            ],
            [
              -0.7082423717495403,
              44.86911880402801
            ],
            [
              -0.708241521334055,
              44.869118139043884
            ],
            [
              -0.7082405830452,
              44.86911753633741
            ],
            [
              -0.7082395659192088,
              44.86911700171298
            ],
            [
              -0.7082384797515593,
              44.86911654031932
            ],
            [
              -0.708237335002637,
              44.869116156599894
            ],
            [
              -0.7082361426969961,
              44.86911585425013
            ],
            [
              -0.708234914317187,
              44.86911563618183
            ],
            [
              -0.708233661693174,
              44.8691155044951
            ],
            [
              -0.7082323968884054,
              44.86911546045816
            ],
            [
              -0.7082311320836367,
              44.8691155044951
            ],
            [
              -0.7082298794596238,
              44.86911563618183
            ],
            [
              -0.7082286510798147,
              44.86911585425013
            ],
            [
              -0.7082274587741738,
              44.869116156599894
            ],
            [
              -0.7082263140252515,
              44.86911654031932
            ],
            [
              -0.708225227857602,
              44.86911700171298
            ],
            [
              -0.7082242107316109,
              44.86911753633741
            ],
            [
              -0.7082232724427557,
              44.869118139043884
            ],
            [
              -0.7082224220272705,
              44.86911880402801
            ],
            [
              -0.708221667675122,
              44.86911952488563
            ],
            [
              -0.7082210166511352,
              44.869120294674495
            ],
            [
              -0.7082204752250298,
              44.86912110598112
            ],
            [
              -0.7082200486110392,
              44.869121950992174
            ],
            [
              -0.7082197409176931,
              44.86912282156974
            ],
            [
              -0.7082195551082523,
              44.86912370932969
            ],
            [
              -0.7082194929721687,
              44.869124605722405
            ],
            [
              -0.7082195551078525,
              44.869125502115125
            ],
            [
              -0.7082197409169085,
              44.86912638987511
            ],
            [
              -0.7082200486099001,
              44.86912726045276
            ],
            [
              -0.7082204752235802,
              44.8691281054639
            ],
            [
              -0.7082210166494304,
              44.86912891677064
            ],
            [
              -0.7082216676732277,
              44.86912968655962
            ],
            [
              -0.7082224220252596,
              44.869130407417366
            ],
            [
              -0.7082232724407055,
              44.86913107240165
            ],
            [
              -0.7082242107296001,
              44.86913167510826
            ],
            [
              -0.7082252278557077,
              44.869132209732825
            ],
            [
              -0.7082263140235467,
              44.86913267112661
            ],
            [
              -0.7082274587727242,
              44.869133054846145
            ],
            [
              -0.7082286510786758,
              44.869133357196006
            ],
            [
              -0.7082298794588392,
              44.86913357526437
            ],
            [
              -0.708231132083237,
              44.869133706951146
            ],
            [
              -0.7082323968884054,
              44.869133750988105
            ]
          ]
        ],
        "type": "Polygon"
      }
    },
    {
      "type": "Feature",
      "properties": {
        "Notes": "souche",
        "Photo": "20250911_155336.jpg",
        "fid": "a3"
      },
      "geometry": {
        "coordinates": [
          [
            [
              -0.7082201582798291,
              44.869057917658665
            ],
            [
              -0.7082212470033868,
              44.869057879752326
            ],
            [
              -0.7082223252419375,
              44.86905776639836
            ],
            [
              -0.70822338261145,
              44.86905757868845
            ],
            [
              -0.7082244089288743,
              44.869057318430315
            ],
            [
              -0.7082253943102093,
              44.869056988130396
            ],
            [
              -0.708226329265691,
              44.86905659096966
            ],
            [
              -0.7082272047911853,
              44.869056130773004
            ],
            [
              -0.7082280124549017,
              44.86905561197235
            ],
            [
              -0.708228744478597,
              44.869055039564046
            ],
            [
              -0.7082293938124828,
              44.8690544190607
            ],
            [
              -0.7082299542031203,
              44.869053756438085
            ],
            [
              -0.7082304202536435,
              44.86905305807764
            ],
            [
              -0.7082307874757334,
              44.86905233070494
            ],
            [
              -0.7082310523328442,
              44.869051581325
            ],
            [
              -0.7082312122742607,
              44.86905081715475
            ],
            [
              -0.708231265759664,
              44.86905004555357
            ],
            [
              -0.7082312122739645,
              44.8690492739524
            ],
            [
              -0.7082310523322629,
              44.86904850978217
            ],
            [
              -0.7082307874748893,
              44.86904776040229
            ],
            [
              -0.7082304202525693,
              44.86904703302966
            ],
            [
              -0.7082299542018572,
              44.869046334669285
            ],
            [
              -0.7082293938110793,
              44.86904567204677
            ],
            [
              -0.708228744477107,
              44.869045051543516
            ],
            [
              -0.7082280124533827,
              44.86904447913532
            ],
            [
              -0.7082272047896954,
              44.869043960334764
            ],
            [
              -0.7082263292642874,
              44.869043500138204
            ],
            [
              -0.708225394308946,
              44.86904310297758
            ],
            [
              -0.7082244089278,
              44.869042772677744
            ],
            [
              -0.708223382610606,
              44.86904251241968
            ],
            [
              -0.7082223252413562,
              44.8690423247098
            ],
            [
              -0.7082212470030905,
              44.86904221135587
            ],
            [
              -0.7082201582798291,
              44.869042173449536
            ],
            [
              -0.7082190695565675,
              44.86904221135587
            ],
            [
              -0.708217991318302,
              44.8690423247098
            ],
            [
              -0.708216933949052,
              44.86904251241968
            ],
            [
              -0.7082159076318579,
              44.869042772677744
            ],
            [
              -0.7082149222507121,
              44.86904310297758
            ],
            [
              -0.7082139872953707,
              44.869043500138204
            ],
            [
              -0.7082131117699628,
              44.869043960334764
            ],
            [
              -0.7082123041062754,
              44.86904447913532
            ],
            [
              -0.7082115720825511,
              44.869045051543516
            ],
            [
              -0.7082109227485788,
              44.86904567204677
            ],
            [
              -0.7082103623578009,
              44.869046334669285
            ],
            [
              -0.7082098963070889,
              44.86904703302966
            ],
            [
              -0.7082095290847686,
              44.86904776040229
            ],
            [
              -0.7082092642273953,
              44.86904850978217
            ],
            [
              -0.7082091042856937,
              44.8690492739524
            ],
            [
              -0.7082090507999942,
              44.86905004555357
            ],
            [
              -0.7082091042853974,
              44.86905081715475
            ],
            [
              -0.7082092642268139,
              44.869051581325
            ],
            [
              -0.7082095290839246,
              44.86905233070494
            ],
            [
              -0.7082098963060147,
              44.86905305807764
            ],
            [
              -0.7082103623565378,
              44.869053756438085
            ],
            [
              -0.7082109227471752,
              44.8690544190607
            ],
            [
              -0.7082115720810611,
              44.869055039564046
            ],
            [
              -0.7082123041047563,
              44.86905561197235
            ],
            [
              -0.7082131117684729,
              44.869056130773004
            ],
            [
              -0.7082139872939671,
              44.86905659096966
            ],
            [
              -0.7082149222494489,
              44.869056988130396
            ],
            [
              -0.7082159076307838,
              44.869057318430315
            ],
            [
              -0.708216933948208,
              44.86905757868845
            ],
            [
              -0.7082179913177206,
              44.86905776639836
            ],
            [
              -0.7082190695562711,
              44.869057879752326
            ],
            [
              -0.7082201582798291,
              44.869057917658665
            ]
          ]
        ],
        "type": "Polygon"
      }
    },
    {
      "type": "Feature",
      "properties": {
        "Notes": "souche sur des branchements d'eau rendant complexe toute intervention",
        "Photo": "20250911_155357.jpg",
        "fid": "a4"
      },
      "geometry": {
        "coordinates": [
          [
            [
              -0.7082186668372117,
              44.86899507077057
            ],
            [
              -0.7082198189120381,
              44.868995030658475
            ],
            [
              -0.7082209598917494,
              44.86899491070848
            ],
            [
              -0.7082220787880825,
              44.86899471207576
            ],
            [
              -0.70822316482545,
              44.868994436673276
            ],
            [
              -0.7082242075447147,
              44.8689940871533
            ],
            [
              -0.7082251969039168,
              44.86899366688189
            ],
            [
              -0.7082261233749844,
              44.86899317990652
            ],
            [
              -0.7082269780354928,
              44.86899263091699
            ],
            [
              -0.708227752654594,
              44.8689920252004
            ],
            [
              -0.7082284397722829,
              44.86899136859012
            ],
            [
              -0.708229032771242,
              44.86899066740968
            ],
            [
              -0.7082295259405698,
              44.86898992841183
            ],
            [
              -0.7082299145307784,
              44.86898915871352
            ],
            [
              -0.7082301947995358,
              44.868988365727354
            ],
            [
              -0.7082303640477048,
              44.86898755709024
            ],
            [
              -0.7082304206453377,
              44.8689867405898
            ],
            [
              -0.7082303640473729,
              44.868985924089365
            ],
            [
              -0.7082301947988848,
              44.8689851154523
            ],
            [
              -0.7082299145298333,
              44.86898432246618
            ],
            [
              -0.7082295259393668,
              44.86898355276794
            ],
            [
              -0.7082290327698278,
              44.86898281377018
            ],
            [
              -0.7082284397707114,
              44.86898211258984
            ],
            [
              -0.7082277526529257,
              44.86898145597968
            ],
            [
              -0.7082269780337918,
              44.868980850263206
            ],
            [
              -0.7082261233733159,
              44.8689803012738
            ],
            [
              -0.7082251969023452,
              44.868979814298534
            ],
            [
              -0.7082242075433003,
              44.868979394027235
            ],
            [
              -0.7082231648242472,
              44.86897904450734
            ],
            [
              -0.7082220787871375,
              44.86897876910494
            ],
            [
              -0.7082209598910985,
              44.86897857047228
            ],
            [
              -0.7082198189117062,
              44.868978450522306
            ],
            [
              -0.7082186668372117,
              44.86897841041022
            ],
            [
              -0.7082175147627171,
              44.868978450522306
            ],
            [
              -0.7082163737833249,
              44.86897857047228
            ],
            [
              -0.7082152548872858,
              44.86897876910494
            ],
            [
              -0.708214168850176,
              44.86897904450734
            ],
            [
              -0.7082131261311231,
              44.868979394027235
            ],
            [
              -0.708212136772078,
              44.868979814298534
            ],
            [
              -0.7082112103011073,
              44.8689803012738
            ],
            [
              -0.7082103556406315,
              44.868980850263206
            ],
            [
              -0.7082095810214977,
              44.86898145597968
            ],
            [
              -0.7082088939037119,
              44.86898211258984
            ],
            [
              -0.7082083009045954,
              44.86898281377018
            ],
            [
              -0.7082078077350564,
              44.86898355276794
            ],
            [
              -0.7082074191445901,
              44.86898432246618
            ],
            [
              -0.7082071388755384,
              44.8689851154523
            ],
            [
              -0.7082069696270503,
              44.868985924089365
            ],
            [
              -0.7082069130290857,
              44.8689867405898
            ],
            [
              -0.7082069696267186,
              44.86898755709024
            ],
            [
              -0.7082071388748876,
              44.868988365727354
            ],
            [
              -0.7082074191436448,
              44.86898915871352
            ],
            [
              -0.7082078077338536,
              44.86898992841183
            ],
            [
              -0.7082083009031811,
              44.86899066740968
            ],
            [
              -0.7082088939021403,
              44.86899136859012
            ],
            [
              -0.7082095810198292,
              44.8689920252004
            ],
            [
              -0.7082103556389305,
              44.86899263091699
            ],
            [
              -0.708211210299439,
              44.86899317990652
            ],
            [
              -0.7082121367705063,
              44.86899366688189
            ],
            [
              -0.7082131261297084,
              44.8689940871533
            ],
            [
              -0.7082141688489731,
              44.868994436673276
            ],
            [
              -0.7082152548863407,
              44.86899471207576
            ],
            [
              -0.7082163737826739,
              44.86899491070848
            ],
            [
              -0.7082175147623851,
              44.868995030658475
            ],
            [
              -0.7082186668372117,
              44.86899507077057
            ]
          ]
        ],
        "type": "Polygon"
      }
    },
    {
      "type": "Feature",
      "properties": {
        "Notes": "souche",
        "Photo": "20250911_155418.jpg",
        "fid": "a5"
      },
      "geometry": {
        "coordinates": [
          [
            [
              -0.7082153140814569,
              44.868947922488594
            ],
            [
              -0.7082164169459456,
              44.868947884089835
            ],
            [
              -0.7082175091892421,
              44.86894776926334
            ],
            [
              -0.7082185802924421,
              44.86894757911498
            ],
            [
              -0.7082196199402324,
              44.86894731547597
            ],
            [
              -0.708220618120233,
              44.86894698088531
            ],
            [
              -0.7082215652194218,
              44.86894657856527
            ],
            [
              -0.7082224521167142,
              44.86894611239043
            ],
            [
              -0.708223270270803,
              44.86894558685032
            ],
            [
              -0.7082240118024168,
              44.86894500700616
            ],
            [
              -0.7082246695702009,
              44.868944378442166
            ],
            [
              -0.7082252372394935,
              44.86894370721178
            ],
            [
              -0.7082257093433308,
              44.86894299977929
            ],
            [
              -0.708226081335098,
              44.868942262957674
            ],
            [
              -0.7082263496323141,
              44.868941503842926
            ],
            [
              -0.7082265116511343,
              44.86894072974574
            ],
            [
              -0.7082265658312328,
              44.868939948121096
            ],
            [
              -0.7082265116508303,
              44.868939166496446
            ],
            [
              -0.7082263496317176,
              44.8689383923993
            ],
            [
              -0.7082260813342319,
              44.868937633284595
            ],
            [
              -0.7082257093422286,
              44.868936896463055
            ],
            [
              -0.7082252372381972,
              44.86893618903065
            ],
            [
              -0.7082246695687607,
              44.86893551780036
            ],
            [
              -0.7082240118008878,
              44.86893488923647
            ],
            [
              -0.7082232702692441,
              44.86893430939241
            ],
            [
              -0.7082224521151853,
              44.868933783852405
            ],
            [
              -0.7082215652179815,
              44.86893331767768
            ],
            [
              -0.7082206181189367,
              44.86893291535773
            ],
            [
              -0.70821961993913,
              44.86893258076715
            ],
            [
              -0.7082185802915761,
              44.868932317128206
            ],
            [
              -0.7082175091886456,
              44.86893212697989
            ],
            [
              -0.7082164169456416,
              44.86893201215344
            ],
            [
              -0.7082153140814569,
              44.86893197375469
            ],
            [
              -0.7082142112172721,
              44.86893201215344
            ],
            [
              -0.7082131189742681,
              44.86893212697989
            ],
            [
              -0.7082120478713375,
              44.868932317128206
            ],
            [
              -0.7082110082237836,
              44.86893258076715
            ],
            [
              -0.7082100100439769,
              44.86893291535773
            ],
            [
              -0.708209062944932,
              44.86893331767768
            ],
            [
              -0.7082081760477285,
              44.868933783852405
            ],
            [
              -0.7082073578936694,
              44.86893430939241
            ],
            [
              -0.7082066163620259,
              44.86893488923647
            ],
            [
              -0.7082059585941529,
              44.86893551780036
            ],
            [
              -0.7082053909247163,
              44.86893618903065
            ],
            [
              -0.708204918820685,
              44.868936896463055
            ],
            [
              -0.7082045468286816,
              44.868937633284595
            ],
            [
              -0.7082042785311959,
              44.8689383923993
            ],
            [
              -0.7082041165120835,
              44.868939166496446
            ],
            [
              -0.7082040623316809,
              44.868939948121096
            ],
            [
              -0.7082041165117793,
              44.86894072974574
            ],
            [
              -0.7082042785305994,
              44.868941503842926
            ],
            [
              -0.7082045468278155,
              44.868942262957674
            ],
            [
              -0.7082049188195828,
              44.86894299977929
            ],
            [
              -0.7082053909234203,
              44.86894370721178
            ],
            [
              -0.7082059585927127,
              44.868944378442166
            ],
            [
              -0.708206616360497,
              44.86894500700616
            ],
            [
              -0.7082073578921106,
              44.86894558685032
            ],
            [
              -0.7082081760461995,
              44.86894611239043
            ],
            [
              -0.7082090629434918,
              44.86894657856527
            ],
            [
              -0.7082100100426808,
              44.86894698088531
            ],
            [
              -0.7082110082226813,
              44.86894731547597
            ],
            [
              -0.7082120478704717,
              44.86894757911498
            ],
            [
              -0.7082131189736715,
              44.86894776926334
            ],
            [
              -0.708214211216968,
              44.868947884089835
            ],
            [
              -0.7082153140814569,
              44.868947922488594
            ]
          ]
        ],
        "type": "Polygon"
      }
    },
    {
      "type": "Feature",
      "properties": {
        "fid": "a7",
        "Date": "",
        "Notes": "pierre",
        "Photo": "20250911_155530.jpg"
      },
      "geometry": {
        "coordinates": [
          [
            [
              -0.7085977168765681,
              44.86884193005618
            ],
            [
              -0.7085989368530803,
              44.86884188757981
            ],
            [
              -0.7086001450805464,
              44.86884176055979
            ],
            [
              -0.7086013299230703,
              44.86884155021938
            ],
            [
              -0.7086024799699661,
              44.86884125858428
            ],
            [
              -0.7086035841456492,
              44.86884088846309
            ],
            [
              -0.708604631816301,
              44.86884044342028
            ],
            [
              -0.7086056128922776,
              44.868839927741874
            ],
            [
              -0.7086065179252794,
              44.868839346394125
            ],
            [
              -0.7086073381993437,
              44.86883870497574
            ],
            [
              -0.7086080658147831,
              44.86883800966391
            ],
            [
              -0.7086086937642649,
              44.86883726715489
            ],
            [
              -0.7086092160002947,
              44.86883648459944
            ],
            [
              -0.7086096274934577,
              44.86883566953401
            ],
            [
              -0.7086099242808535,
              44.86883482980812
            ],
            [
              -0.7086101035042625,
              44.86883397350878
            ],
            [
              -0.70861016343767,
              44.86883310888264
            ],
            [
              -0.7086101035038903,
              44.868832244256495
            ],
            [
              -0.7086099242801235,
              44.86883138795721
            ],
            [
              -0.7086096274923979,
              44.86883054823138
            ],
            [
              -0.708609215998946,
              44.868829733166024
            ],
            [
              -0.7086086937626789,
              44.868828950610684
            ],
            [
              -0.7086080658130209,
              44.86882820810178
            ],
            [
              -0.7086073381974729,
              44.868827512790084
            ],
            [
              -0.7086065179233719,
              44.86882687137182
            ],
            [
              -0.7086056128904068,
              44.86882629002421
            ],
            [
              -0.7086046318145386,
              44.86882577434592
            ],
            [
              -0.7086035841440632,
              44.868825329303235
            ],
            [
              -0.7086024799686174,
              44.86882495918215
            ],
            [
              -0.7086013299220105,
              44.86882466754714
            ],
            [
              -0.7086001450798164,
              44.86882445720679
            ],
            [
              -0.708598936852708,
              44.868824330186804
            ],
            [
              -0.7085977168765681,
              44.86882428771045
            ],
            [
              -0.7085964969004279,
              44.868824330186804
            ],
            [
              -0.7085952886733196,
              44.86882445720679
            ],
            [
              -0.7085941038311254,
              44.86882466754714
            ],
            [
              -0.7085929537845188,
              44.86882495918215
            ],
            [
              -0.7085918496090728,
              44.868825329303235
            ],
            [
              -0.7085908019385976,
              44.86882577434592
            ],
            [
              -0.7085898208627294,
              44.86882629002421
            ],
            [
              -0.7085889158297642,
              44.86882687137182
            ],
            [
              -0.7085880955556633,
              44.868827512790084
            ],
            [
              -0.7085873679401152,
              44.86882820810178
            ],
            [
              -0.7085867399904573,
              44.868828950610684
            ],
            [
              -0.7085862177541902,
              44.868829733166024
            ],
            [
              -0.7085858062607383,
              44.86883054823138
            ],
            [
              -0.7085855094730127,
              44.86883138795721
            ],
            [
              -0.7085853302492457,
              44.868832244256495
            ],
            [
              -0.708585270315466,
              44.86883310888264
            ],
            [
              -0.7085853302488737,
              44.86883397350878
            ],
            [
              -0.7085855094722827,
              44.86883482980812
            ],
            [
              -0.7085858062596785,
              44.86883566953401
            ],
            [
              -0.7085862177528415,
              44.86883648459944
            ],
            [
              -0.7085867399888712,
              44.86883726715489
            ],
            [
              -0.708587367938353,
              44.86883800966391
            ],
            [
              -0.7085880955537924,
              44.86883870497574
            ],
            [
              -0.7085889158278567,
              44.868839346394125
            ],
            [
              -0.7085898208608585,
              44.868839927741874
            ],
            [
              -0.7085908019368352,
              44.86884044342028
            ],
            [
              -0.7085918496074868,
              44.86884088846309
            ],
            [
              -0.70859295378317,
              44.86884125858428
            ],
            [
              -0.7085941038300658,
              44.86884155021938
            ],
            [
              -0.7085952886725898,
              44.86884176055979
            ],
            [
              -0.7085964969000559,
              44.86884188757981
            ],
            [
              -0.7085977168765681,
              44.86884193005618
            ]
          ]
        ],
        "type": "Polygon"
      }
    },
    {
      "type": "Feature",
      "properties": {
        "fid": "a8",
        "Notes": "s'assurer de la remise en état du trottoir",
        "Photo": "20250911_154700.jpg"
      },
      "geometry": {
        "coordinates": [
          [
            [
              -0.7066877369638291,
              44.87066795123991
            ],
            [
              -0.706744028221749,
              44.87061864442603
            ],
            [
              -0.7067522505400348,
              44.87045637989212
            ],
            [
              -0.7066782496743258,
              44.87041783079232
            ],
            [
              -0.7066877369638291,
              44.87066795123991
            ]
          ]
        ],
        "type": "Polygon"
      }
    },
    {
      "type": "Feature",
      "properties": {
        "Date": "",
        "fid": "a9",
        "Notes": "la piste présente des déformations",
        "Photo": "20250904_160346.jpg"
      },
      "geometry": {
        "coordinates": [
          [
            [
              -0.7044503126541315,
              44.873775774810014
            ],
            [
              -0.7047947154439669,
              44.87376786246301
            ],
            [
              -0.7048617065106839,
              44.87377394888364
            ],
            [
              -0.7051545777103456,
              44.87376847110494
            ],
            [
              -0.7052335928142099,
              44.873744734057595
            ],
            [
              -0.7053031604596072,
              44.873741690845804
            ],
            [
              -0.7053048781798168,
              44.873725257498165
            ],
            [
              -0.7052241453557428,
              44.873733778493374
            ],
            [
              -0.7051416948125393,
              44.87375325504988
            ],
            [
              -0.7048565533511351,
              44.873758732830055
            ],
            [
              -0.7047981508833345,
              44.87375142912285
            ],
            [
              -0.7044494537945809,
              44.873761776040936
            ],
            [
              -0.7044503126541315,
              44.873775774810014
            ]
          ]
        ],
        "type": "Polygon"
      }
    },
    {
      "type": "Feature",
      "properties": {
        "fid": "a10",
        "Notes": "élargissement de trottoir ou revêtement plus adapté",
        "Photo": "20250904_160800.jpg"
      },
      "geometry": {
        "coordinates": [
          [
            [
              -0.7056804833261197,
              44.87305275577933
            ],
            [
              -0.7056211096240759,
              44.8731016696496
            ],
            [
              -0.7055513455235598,
              44.873235788111
            ],
            [
              -0.7055097839323992,
              44.87329942852682
            ],
            [
              -0.7055609937500833,
              44.87330889569054
            ],
            [
              -0.7056648977293207,
              44.873125863591355
            ],
            [
              -0.7056804833261197,
              44.87305275577933
            ]
          ]
        ],
        "type": "Polygon"
      }
    },
    {
      "type": "Feature",
      "properties": {
        "fid": "a11",
        "Notes": "souche",
        "Photo": " 20250904_161714.jpg",
        "Date": ""
      },
      "geometry": {
        "coordinates": [
          [
            [
              -0.706574855811681,
              44.87298782401679
            ],
            [
              -0.7065760029311954,
              44.87298778407998
            ],
            [
              -0.7065771390033169,
              44.872987664654204
            ],
            [
              -0.7065782530870457,
              44.872987466889576
            ],
            [
              -0.706579334453142,
              44.87298719269067
            ],
            [
              -0.7065803726874557,
              44.8729868446982
            ],
            [
              -0.7065813577912197,
              44.8729864262635
            ],
            [
              -0.7065822802773438,
              44.872985941416324
            ],
            [
              -0.7065831312617813,
              44.87298539482605
            ],
            [
              -0.7065839025490861,
              44.87298479175661
            ],
            [
              -0.7065845867113404,
              44.8729841380159
            ],
            [
              -0.7065851771596893,
              44.87298343989981
            ],
            [
              -0.7065856682077941,
              44.87298270413159
            ],
            [
              -0.7065860551265969,
              44.87298193779707
            ],
            [
              -0.706586334189861,
              44.87298114827648
            ],
            [
              -0.7065865027100594,
              44.87298034317334
            ],
            [
              -0.7065865590642548,
              44.87297953024123
            ],
            [
              -0.7065865027097304,
              44.87297871730913
            ],
            [
              -0.7065863341892157,
              44.872977912206025
            ],
            [
              -0.7065860551256598,
              44.87297712268549
            ],
            [
              -0.7065856682066015,
              44.872976356351046
            ],
            [
              -0.7065851771582868,
              44.872975620582906
            ],
            [
              -0.7065845867097822,
              44.87297492246692
            ],
            [
              -0.7065839025474319,
              44.87297426872633
            ],
            [
              -0.7065831312600946,
              44.87297366565701
            ],
            [
              -0.7065822802756897,
              44.87297311906684
            ],
            [
              -0.7065813577896615,
              44.87297263421979
            ],
            [
              -0.7065803726860534,
              44.8729722157852
            ],
            [
              -0.7065793344519494,
              44.8729718677928
            ],
            [
              -0.7065782530861086,
              44.87297159359398
            ],
            [
              -0.7065771390026716,
              44.8729713958294
            ],
            [
              -0.7065760029308662,
              44.87297127640365
            ],
            [
              -0.706574855811681,
              44.87297123646687
            ],
            [
              -0.7065737086924956,
              44.87297127640365
            ],
            [
              -0.7065725726206903,
              44.8729713958294
            ],
            [
              -0.7065714585372532,
              44.87297159359398
            ],
            [
              -0.7065703771714124,
              44.8729718677928
            ],
            [
              -0.7065693389373084,
              44.8729722157852
            ],
            [
              -0.7065683538337004,
              44.87297263421979
            ],
            [
              -0.7065674313476722,
              44.87297311906684
            ],
            [
              -0.7065665803632671,
              44.87297366565701
            ],
            [
              -0.7065658090759298,
              44.87297426872633
            ],
            [
              -0.7065651249135796,
              44.87297492246692
            ],
            [
              -0.706564534465075,
              44.872975620582906
            ],
            [
              -0.7065640434167603,
              44.872976356351046
            ],
            [
              -0.7065636564977021,
              44.87297712268549
            ],
            [
              -0.7065633774341461,
              44.872977912206025
            ],
            [
              -0.7065632089136314,
              44.87297871730913
            ],
            [
              -0.7065631525591068,
              44.87297953024123
            ],
            [
              -0.7065632089133024,
              44.87298034317334
            ],
            [
              -0.7065633774335008,
              44.87298114827648
            ],
            [
              -0.706563656496765,
              44.87298193779707
            ],
            [
              -0.7065640434155676,
              44.87298270413159
            ],
            [
              -0.7065645344636726,
              44.87298343989981
            ],
            [
              -0.7065651249120214,
              44.8729841380159
            ],
            [
              -0.7065658090742757,
              44.87298479175661
            ],
            [
              -0.7065665803615806,
              44.87298539482605
            ],
            [
              -0.7065674313460181,
              44.872985941416324
            ],
            [
              -0.7065683538321422,
              44.8729864262635
            ],
            [
              -0.706569338935906,
              44.8729868446982
            ],
            [
              -0.7065703771702199,
              44.87298719269067
            ],
            [
              -0.7065714585363161,
              44.872987466889576
            ],
            [
              -0.7065725726200449,
              44.872987664654204
            ],
            [
              -0.7065737086921665,
              44.87298778407998
            ],
            [
              -0.706574855811681,
              44.87298782401679
            ]
          ]
        ],
        "type": "Polygon"
      }
    },
    {
      "type": "Feature",
      "properties": {
        "Notes": "double panneaux céder le passage dont un gênant l'utilisation du trottoir",
        "fid": "a12",
        "Date": "",
        "Photo": "20250904_163011.jpg"
      },
      "geometry": {
        "coordinates": [
          [
            -0.7076220168494558,
            44.87141599606579
          ],
          [
            -0.7076597900961588,
            44.8714949989604
          ]
        ],
        "type": "LineString"
      }
    },
    {
      "type": "Feature",
      "properties": {
        "Notes": "devers de trottoir",
        "fid": "a13",
        "Photo": "20250904_162435.jpg"
      },
      "geometry": {
        "coordinates": [
          [
            [
              -0.7076934777797987,
              44.87148741977637
            ],
            [
              -0.7076778954150882,
              44.87147677825945
            ],
            [
              -0.7076107495859958,
              44.871511714551474
            ],
            [
              -0.7075574862277847,
              44.87156110720423
            ],
            [
              -0.7075685355421797,
              44.871564520516074
            ],
            [
              -0.7076359646854655,
              44.87151312003414
            ],
            [
              -0.7076934777797987,
              44.87148741977637
            ]
          ]
        ],
        "type": "Polygon"
      }
    },
    {
      "type": "Feature",
      "properties": {
        "Date": "",
        "Notes": "trottoir à aménager",
        "fid": "a14",
        "Photo": "20250911_143935.jpg"
      },
      "geometry": {
        "coordinates": [
          [
            [
              -0.7063894940102955,
              44.87548993815008
            ],
            [
              -0.7064073540550737,
              44.87546869352036
            ],
            [
              -0.7060118816401086,
              44.87530868052406
            ],
            [
              -0.7059959351717282,
              44.87533037722727
            ],
            [
              -0.7063894940102955,
              44.87548993815008
            ]
          ]
        ],
        "type": "Polygon"
      }
    },
    {
      "type": "Feature",
      "properties": {
        "Notes": "effondrement",
        "Photo": "20250904_152134.jpg",
        "fid": "a17"
      },
      "geometry": {
        "type": "Polygon",
        "coordinates": [
          [
            [
              -0.699737939122457,
              44.871584959164444
            ],
            [
              -0.6997384587291409,
              44.871584941073976
            ],
            [
              -0.6997389733317275,
              44.87158488697679
            ],
            [
              -0.6997394779743116,
              44.87158479739386
            ],
            [
              -0.6997399677969084,
              44.87158467318793
            ],
            [
              -0.6997404380822576,
              44.87158451555518
            ],
            [
              -0.6997408843012539,
              44.871584326013675
            ],
            [
              -0.6997413021565636,
              44.871584106388816
            ],
            [
              -0.6997416876240117,
              44.871583858795724
            ],
            [
              -0.6997420369913355,
              44.87158358561884
            ],
            [
              -0.699742346893937,
              44.87158328948902
            ],
            [
              -0.6997426143472852,
              44.871582973258135
            ],
            [
              -0.6997428367756584,
              44.87158263997168
            ],
            [
              -0.6997430120369502,
              44.87158229283939
            ],
            [
              -0.6997431384432997,
              44.87158193520432
            ],
            [
              -0.6997432147773452,
              44.871581570510706
            ],
            [
              -0.6997432403039495,
              44.87158120227074
            ],
            [
              -0.6997432147772779,
              44.87158083403076
            ],
            [
              -0.6997431384431673,
              44.871580469337154
            ],
            [
              -0.699743012036758,
              44.87158011170209
            ],
            [
              -0.6997428367754137,
              44.871579764569816
            ],
            [
              -0.6997426143469975,
              44.87157943128338
            ],
            [
              -0.6997423468936175,
              44.871579115052526
            ],
            [
              -0.6997420369909961,
              44.87157881892272
            ],
            [
              -0.6997416876236655,
              44.87157854574586
            ],
            [
              -0.6997413021562242,
              44.871578298152784
            ],
            [
              -0.6997408843009342,
              44.87157807852795
            ],
            [
              -0.69974043808197,
              44.87157788898648
            ],
            [
              -0.6997399677966637,
              44.87157773135373
            ],
            [
              -0.6997394779741195,
              44.871577607147834
            ],
            [
              -0.6997389733315951,
              44.87157751756491
            ],
            [
              -0.6997384587290734,
              44.87157746346773
            ],
            [
              -0.699737939122457,
              44.87157744537726
            ],
            [
              -0.6997374195158403,
              44.87157746346773
            ],
            [
              -0.6997369049133185,
              44.87157751756491
            ],
            [
              -0.6997364002707943,
              44.871577607147834
            ],
            [
              -0.69973591044825,
              44.87157773135373
            ],
            [
              -0.6997354401629438,
              44.87157788898648
            ],
            [
              -0.6997349939439795,
              44.87157807852795
            ],
            [
              -0.6997345760886895,
              44.871578298152784
            ],
            [
              -0.6997341906212482,
              44.87157854574586
            ],
            [
              -0.6997338412539177,
              44.87157881892272
            ],
            [
              -0.6997335313512962,
              44.871579115052526
            ],
            [
              -0.6997332638979162,
              44.87157943128338
            ],
            [
              -0.6997330414695001,
              44.871579764569816
            ],
            [
              -0.6997328662081558,
              44.87158011170209
            ],
            [
              -0.6997327398017464,
              44.871580469337154
            ],
            [
              -0.6997326634676359,
              44.87158083403076
            ],
            [
              -0.6997326379409644,
              44.87158120227074
            ],
            [
              -0.6997326634675683,
              44.871581570510706
            ],
            [
              -0.699732739801614,
              44.87158193520432
            ],
            [
              -0.6997328662079635,
              44.87158229283939
            ],
            [
              -0.6997330414692555,
              44.87158263997168
            ],
            [
              -0.6997332638976286,
              44.871582973258135
            ],
            [
              -0.6997335313509766,
              44.87158328948902
            ],
            [
              -0.6997338412535783,
              44.87158358561884
            ],
            [
              -0.6997341906209021,
              44.871583858795724
            ],
            [
              -0.6997345760883501,
              44.871584106388816
            ],
            [
              -0.6997349939436599,
              44.871584326013675
            ],
            [
              -0.6997354401626561,
              44.87158451555518
            ],
            [
              -0.6997359104480053,
              44.87158467318793
            ],
            [
              -0.6997364002706021,
              44.87158479739386
            ],
            [
              -0.6997369049131863,
              44.87158488697679
            ],
            [
              -0.699737419515773,
              44.871584941073976
            ],
            [
              -0.699737939122457,
              44.871584959164444
            ]
          ]
        ]
      }
    },
    {
      "type": "Feature",
      "properties": {
        "Notes": "débordement caniveau",
        "fid": "a18",
        "Photo": "20250904_153419.jpg"
      },
      "geometry": {
        "coordinates": [
          [
            [
              -0.6968152026472012,
              44.87116378751452
            ],
            [
              -0.6972999401782545,
              44.87131657342289
            ],
            [
              -0.6971360547039467,
              44.87125572021159
            ],
            [
              -0.6968152026472012,
              44.87116378751452
            ]
          ]
        ],
        "type": "Polygon"
      }
    },
    {
      "type": "Feature",
      "properties": {
        "fid": "a19",
        "Notes": "zone de rencontre potentielle",
        "Photo": "20250904_153950.jpg"
      },
      "geometry": {
        "coordinates": [
          [
            [
              -0.6954674406991899,
              44.87107797695438
            ],
            [
              -0.6958426231315968,
              44.870268028458526
            ],
            [
              -0.6948267445451677,
              44.8699039569874
            ],
            [
              -0.6935857564988055,
              44.86967078640839
            ],
            [
              -0.6933433309272061,
              44.86977714503544
            ],
            [
              -0.6926391423615428,
              44.86953579248362
            ],
            [
              -0.69226973196578,
              44.87003485935446
            ],
            [
              -0.6938685863329113,
              44.870546193873366
            ],
            [
              -0.6945554587860556,
              44.87068527607664
            ],
            [
              -0.6954674406991899,
              44.87107797695438
            ]
          ]
        ],
        "type": "Polygon"
      },
      "id": 24
    },
    {
      "type": "Feature",
      "properties": {
        "fid": "a21",
        "Notes": "mise à niveau de regard",
        "Photo": "20250911_151828.jpg"
      },
      "geometry": {
        "type": "Polygon",
        "coordinates": [
          [
            [
              -0.7107601374189869,
              44.873382199643565
            ],
            [
              -0.7107613934550089,
              44.87338215591515
            ],
            [
              -0.7107626373947116,
              44.87338202515104
            ],
            [
              -0.7107638572582703,
              44.87338180861056
            ],
            [
              -0.7107650412977272,
              44.87338150837912
            ],
            [
              -0.7107661781101304,
              44.87338112734812
            ],
            [
              -0.7107672567473515,
              44.87338066918709
            ],
            [
              -0.7107682668215217,
              44.87338013830837
            ],
            [
              -0.710769198605073,
              44.873379539824626
            ],
            [
              -0.7107700431244199,
              44.873378879499576
            ],
            [
              -0.71077079224638,
              44.87337816369251
            ],
            [
              -0.7107714387565006,
              44.87337739929705
            ],
            [
              -0.7107719764285388,
              44.87337659367473
            ],
            [
              -0.7107724000844228,
              44.87337575458417
            ],
            [
              -0.7107727056441188,
              44.873374890106234
            ],
            [
              -0.7107728901649253,
              44.87337400856633
            ],
            [
              -0.7107729518698113,
              44.87337311845418
            ],
            [
              -0.7107728901645308,
              44.87337222834204
            ],
            [
              -0.710772705643345,
              44.87337134680219
            ],
            [
              -0.7107724000832992,
              44.873370482324326
            ],
            [
              -0.710771976427109,
              44.87336964323384
            ],
            [
              -0.7107714387548193,
              44.87336883761164
            ],
            [
              -0.7107707922445117,
              44.873368073216305
            ],
            [
              -0.7107700431224365,
              44.87336735740938
            ],
            [
              -0.710769198603051,
              44.87336669708447
            ],
            [
              -0.7107682668195385,
              44.873366098600854
            ],
            [
              -0.7107672567454835,
              44.87336556772227
            ],
            [
              -0.7107661781084491,
              44.87336510956136
            ],
            [
              -0.7107650412962974,
              44.87336472853047
            ],
            [
              -0.7107638572571471,
              44.873364428299126
            ],
            [
              -0.7107626373939379,
              44.873364211758705
            ],
            [
              -0.7107613934546144,
              44.87336408099464
            ],
            [
              -0.7107601374189869,
              44.87336403726624
            ],
            [
              -0.7107588813833594,
              44.87336408099464
            ],
            [
              -0.710757637444036,
              44.873364211758705
            ],
            [
              -0.7107564175808269,
              44.873364428299126
            ],
            [
              -0.7107552335416766,
              44.87336472853047
            ],
            [
              -0.7107540967295247,
              44.87336510956136
            ],
            [
              -0.7107530180924905,
              44.87336556772227
            ],
            [
              -0.7107520080184352,
              44.873366098600854
            ],
            [
              -0.7107510762349228,
              44.87336669708447
            ],
            [
              -0.7107502317155372,
              44.87336735740938
            ],
            [
              -0.710749482593462,
              44.873368073216305
            ],
            [
              -0.7107488360831546,
              44.87336883761164
            ],
            [
              -0.7107482984108648,
              44.87336964323384
            ],
            [
              -0.7107478747546745,
              44.873370482324326
            ],
            [
              -0.7107475691946288,
              44.87337134680219
            ],
            [
              -0.7107473846734431,
              44.87337222834204
            ],
            [
              -0.7107473229681626,
              44.87337311845418
            ],
            [
              -0.7107473846730485,
              44.87337400856633
            ],
            [
              -0.7107475691938551,
              44.873374890106234
            ],
            [
              -0.7107478747535511,
              44.87337575458417
            ],
            [
              -0.710748298409435,
              44.87337659367473
            ],
            [
              -0.7107488360814732,
              44.87337739929705
            ],
            [
              -0.710749482591594,
              44.87337816369251
            ],
            [
              -0.710750231713554,
              44.873378879499576
            ],
            [
              -0.7107510762329007,
              44.873379539824626
            ],
            [
              -0.7107520080164521,
              44.87338013830837
            ],
            [
              -0.7107530180906223,
              44.87338066918709
            ],
            [
              -0.7107540967278434,
              44.87338112734812
            ],
            [
              -0.7107552335402466,
              44.87338150837912
            ],
            [
              -0.7107564175797035,
              44.87338180861056
            ],
            [
              -0.7107576374432624,
              44.87338202515104
            ],
            [
              -0.7107588813829651,
              44.87338215591515
            ],
            [
              -0.7107601374189869,
              44.873382199643565
            ]
          ]
        ]
      }
    },
    {
      "type": "Feature",
      "properties": {
        "fid": "a20",
        "Notes": "mise à niveau de regard",
        "Photo": "20250911_151828.jpg"
      },
      "geometry": {
        "type": "Polygon",
        "coordinates": [
          [
            [
              -0.7106835163023391,
              44.87347324733141
            ],
            [
              -0.7106846397351358,
              44.87347320821959
            ],
            [
              -0.710685752348656,
              44.87347309126081
            ],
            [
              -0.7106868434278188,
              44.873472897581415
            ],
            [
              -0.7106879024649317,
              44.87347262904669
            ],
            [
              -0.7106889192608845,
              44.87347228824272
            ],
            [
              -0.7106898840233737,
              44.87347187845169
            ],
            [
              -0.7106907874612067,
              44.87347140362007
            ],
            [
              -0.7106916208737823,
              44.87347086832078
            ],
            [
              -0.7106923762348811,
              44.873470277709025
            ],
            [
              -0.7106930462699634,
              44.87346963747272
            ],
            [
              -0.7106936245262264,
              44.87346895377771
            ],
            [
              -0.7106941054347482,
              44.87346823320834
            ],
            [
              -0.7106944843641197,
              44.87346748270409
            ],
            [
              -0.7106947576650477,
              44.873466709492725
            ],
            [
              -0.7106949227054988,
              44.87346592102071
            ],
            [
              -0.7106949778960475,
              44.87346512488144
            ],
            [
              -0.7106949227051832,
              44.87346432874219
            ],
            [
              -0.7106947576644287,
              44.873463540270194
            ],
            [
              -0.710694484363221,
              44.87346276705889
            ],
            [
              -0.7106941054336043,
              44.87346201655471
            ],
            [
              -0.7106936245248814,
              44.87346129598543
            ],
            [
              -0.7106930462684689,
              44.873460612290515
            ],
            [
              -0.7106923762332945,
              44.87345997205433
            ],
            [
              -0.7106916208721646,
              44.87345938144268
            ],
            [
              -0.7106907874596201,
              44.87345884614349
            ],
            [
              -0.7106898840218792,
              44.87345837131199
            ],
            [
              -0.7106889192595395,
              44.87345796152105
            ],
            [
              -0.7106879024637878,
              44.873457620717176
            ],
            [
              -0.7106868434269201,
              44.87345735218251
            ],
            [
              -0.7106857523480369,
              44.87345715850318
            ],
            [
              -0.71068463973482,
              44.87345704154443
            ],
            [
              -0.7106835163023391,
              44.873457002432616
            ],
            [
              -0.7106823928698579,
              44.87345704154443
            ],
            [
              -0.7106812802566411,
              44.87345715850318
            ],
            [
              -0.7106801891777579,
              44.87345735218251
            ],
            [
              -0.7106791301408901,
              44.873457620717176
            ],
            [
              -0.7106781133451385,
              44.87345796152105
            ],
            [
              -0.710677148582799,
              44.87345837131199
            ],
            [
              -0.7106762451450578,
              44.87345884614349
            ],
            [
              -0.7106754117325135,
              44.87345938144268
            ],
            [
              -0.7106746563713835,
              44.87345997205433
            ],
            [
              -0.710673986336209,
              44.873460612290515
            ],
            [
              -0.7106734080797966,
              44.87346129598543
            ],
            [
              -0.7106729271710736,
              44.87346201655471
            ],
            [
              -0.7106725482414569,
              44.87346276705889
            ],
            [
              -0.7106722749402492,
              44.873463540270194
            ],
            [
              -0.7106721098994947,
              44.87346432874219
            ],
            [
              -0.7106720547086305,
              44.87346512488144
            ],
            [
              -0.7106721098991792,
              44.87346592102071
            ],
            [
              -0.7106722749396303,
              44.873466709492725
            ],
            [
              -0.7106725482405583,
              44.87346748270409
            ],
            [
              -0.7106729271699299,
              44.87346823320834
            ],
            [
              -0.7106734080784517,
              44.87346895377771
            ],
            [
              -0.7106739863347145,
              44.87346963747272
            ],
            [
              -0.7106746563697969,
              44.873470277709025
            ],
            [
              -0.7106754117308958,
              44.87347086832078
            ],
            [
              -0.7106762451434712,
              44.87347140362007
            ],
            [
              -0.7106771485813044,
              44.87347187845169
            ],
            [
              -0.7106781133437934,
              44.87347228824272
            ],
            [
              -0.7106791301397463,
              44.87347262904669
            ],
            [
              -0.7106801891768593,
              44.873472897581415
            ],
            [
              -0.7106812802560221,
              44.87347309126081
            ],
            [
              -0.7106823928695423,
              44.87347320821959
            ],
            [
              -0.7106835163023391,
              44.87347324733141
            ]
          ]
        ]
      }
    },
    {
      "type": "Feature",
      "properties": {
        "Photo": "20250911_151712.jpg",
        "fid": "a22",
        "Notes": "mise à niveau de regard"
      },
      "geometry": {
        "type": "Polygon",
        "coordinates": [
          [
            [
              -0.7104345238608971,
              44.87406210626809
            ],
            [
              -0.7104356116143847,
              44.874062068398814
            ],
            [
              -0.7104366888922073,
              44.8740619551557
            ],
            [
              -0.7104377453195867,
              44.87406176762933
            ],
            [
              -0.7104387707225456,
              44.874061507625704
            ],
            [
              -0.7104397552258899,
              44.874061177648784
            ],
            [
              -0.7104406893483112,
              44.87406078087643
            ],
            [
              -0.7104415640936982,
              44.8740603211298
            ],
            [
              -0.7104423710377734,
              44.87405980283646
            ],
            [
              -0.7104431024092236,
              44.87405923098791
            ],
            [
              -0.7104437511645427,
              44.874058611091336
            ],
            [
              -0.7104443110558633,
              44.87405794911669
            ],
            [
              -0.7104447766911279,
              44.874057251439154
            ],
            [
              -0.7104451435860173,
              44.87405652477775
            ],
            [
              -0.7104454082071363,
              44.87405577613062
            ],
            [
              -0.7104455680060426,
              44.874055012707636
            ],
            [
              -0.7104456214437895,
              44.87405424186099
            ],
            [
              -0.7104455680057468,
              44.87405347101435
            ],
            [
              -0.7104454082065559,
              44.8740527075914
            ],
            [
              -0.7104451435851746,
              44.87405195894432
            ],
            [
              -0.7104447766900556,
              44.87405123228297
            ],
            [
              -0.7104443110546024,
              44.87405053460552
            ],
            [
              -0.7104437511631415,
              44.87404987263098
            ],
            [
              -0.7104431024077362,
              44.8740492527345
            ],
            [
              -0.7104423710362567,
              44.874048680886055
            ],
            [
              -0.7104415640922108,
              44.87404816259282
            ],
            [
              -0.7104406893469101,
              44.87404770284629
            ],
            [
              -0.7104397552246288,
              44.874047306074026
            ],
            [
              -0.7104387707214732,
              44.87404697609719
            ],
            [
              -0.710437745318744,
              44.87404671609364
            ],
            [
              -0.710436688891627,
              44.87404652856732
            ],
            [
              -0.7104356116140889,
              44.87404641532423
            ],
            [
              -0.7104345238608971,
              44.87404637745497
            ],
            [
              -0.7104334361077054,
              44.87404641532423
            ],
            [
              -0.7104323588301672,
              44.87404652856732
            ],
            [
              -0.7104313024030502,
              44.87404671609364
            ],
            [
              -0.710430277000321,
              44.87404697609719
            ],
            [
              -0.7104292924971655,
              44.874047306074026
            ],
            [
              -0.7104283583748843,
              44.87404770284629
            ],
            [
              -0.7104274836295835,
              44.87404816259282
            ],
            [
              -0.7104266766855375,
              44.874048680886055
            ],
            [
              -0.710425945314058,
              44.8740492527345
            ],
            [
              -0.7104252965586527,
              44.87404987263098
            ],
            [
              -0.7104247366671919,
              44.87405053460552
            ],
            [
              -0.7104242710317387,
              44.87405123228297
            ],
            [
              -0.7104239041366196,
              44.87405195894432
            ],
            [
              -0.7104236395152385,
              44.8740527075914
            ],
            [
              -0.7104234797160475,
              44.87405347101435
            ],
            [
              -0.7104234262780047,
              44.87405424186099
            ],
            [
              -0.7104234797157517,
              44.874055012707636
            ],
            [
              -0.710423639514658,
              44.87405577613062
            ],
            [
              -0.7104239041357768,
              44.87405652477775
            ],
            [
              -0.7104242710306663,
              44.874057251439154
            ],
            [
              -0.710424736665931,
              44.87405794911669
            ],
            [
              -0.7104252965572515,
              44.874058611091336
            ],
            [
              -0.7104259453125705,
              44.87405923098791
            ],
            [
              -0.7104266766840208,
              44.87405980283646
            ],
            [
              -0.7104274836280959,
              44.8740603211298
            ],
            [
              -0.7104283583734831,
              44.87406078087643
            ],
            [
              -0.7104292924959045,
              44.874061177648784
            ],
            [
              -0.7104302769992487,
              44.874061507625704
            ],
            [
              -0.7104313024022076,
              44.87406176762933
            ],
            [
              -0.7104323588295868,
              44.8740619551557
            ],
            [
              -0.7104334361074095,
              44.874062068398814
            ],
            [
              -0.7104345238608971,
              44.87406210626809
            ]
          ]
        ]
      }
    },
    {
      "type": "Feature",
      "properties": {
        "Notes": "trottoir à aménager",
        "fid": "a23",
        "Photo": "20250911_152020.jpg"
      },
      "geometry": {
        "coordinates": [
          [
            [
              -0.7113011799407047,
              44.87278719214609
            ],
            [
              -0.7113072893994001,
              44.872764616263254
            ],
            [
              -0.7113116532979973,
              44.872716371881495
            ],
            [
              -0.7112902701936719,
              44.87270833114738
            ],
            [
              -0.7112867790756923,
              44.87278626436978
            ],
            [
              -0.7113011799407047,
              44.87278719214609
            ]
          ]
        ],
        "type": "Polygon"
      }
    },
    {
      "type": "Feature",
      "properties": {
        "Notes": "absence de trottoir (piste cyclable)",
        "fid": "a24",
        "Photo": "20250911_152043.jpg"
      },
      "geometry": {
        "coordinates": [
          [
            [
              -0.7112089090061033,
              44.8726479581334
            ],
            [
              -0.7112586818383022,
              44.87261115167067
            ],
            [
              -0.7112067449691324,
              44.872601950051205
            ],
            [
              -0.7111364137907117,
              44.8725697443719
            ],
            [
              -0.7110844769216271,
              44.872522969424665
            ],
            [
              -0.7110650005958519,
              44.87248462927553
            ],
            [
              -0.7109957514352345,
              44.8724892300948
            ],
            [
              -0.7111191015019074,
              44.87259964964633
            ],
            [
              -0.7112089090061033,
              44.8726479581334
            ]
          ]
        ],
        "type": "Polygon"
      }
    },
    {
      "type": "Feature",
      "properties": {
        "Photo": "20250911_155458.jpg",
        "fid": "a6",
        "Notes": "éclairage"
      },
      "geometry": {
        "coordinates": [
          [
            [
              -0.7082658043651406,
              44.86888405185206
            ],
            [
              -0.7082582028010904,
              44.86887887165625
            ],
            [
              -0.7082511859738929,
              44.868886538346175
            ],
            [
              -0.7082658043651406,
              44.86888405185206
            ]
          ]
        ],
        "type": "Polygon"
      }
    }
  ]
}
