{
  "type": "FeatureCollection",
  "features": [
    {
      "type": "Feature",
      "properties": {
        "Ligne": 7,
        "Long": 1044.45,
        "note": "chemin inchangé - praticable avec peu d’aménagements"
      },
      "geometry": {
        "coordinates": [
          [
            [
              -0.692248702184084,
              44.87397143485946
            ],
            [
              -0.6925257791774813,
              44.874032991861405
            ],
            [
              -0.692947102164425,
              44.87408305290045
            ],
            [
              -0.693205545878305,
              44.87406825140215
            ],
            [
              -0.69334958224724,
              44.87410375998728
            ],
            [
              -0.693461740238134,
              44.87411862811596
            ],
            [
              -0.69366834916006,
              44.87414430315099
            ],
            [
              -0.694001638464357,
              44.87407430526918
            ],
            [
              -0.694372574438405,
              44.874145661757474
            ],
            [
              -0.694650114994348,
              44.874189124735246
            ],
            [
              -0.694893907197268,
              44.87421665970041
            ],
            [
              -0.695119752494998,
              44.87426959328104
            ],
            [
              -0.695443687074718,
              44.87432236011563
            ],
            [
              -0.696081771811679,
              44.874378613815246
            ],
            [
              -0.69620004917066,
              44.87438707501465
            ],
            [
              -0.696264455394653,
              44.874405080981994
            ],
            [
              -0.696376716660055,
              44.8744214928707
            ],
            [
              -0.697900833283153,
              44.87455827588583
            ],
            [
              -0.6981585,
              44.8745769
            ],
            [
              -0.698615668052682,
              44.87462125817487
            ],
            [
              -0.698681944658582,
              44.87463455013875
            ],
            [
              -0.698876356088467,
              44.874640470890355
            ],
            [
              -0.6990814,
              44.8746305
            ],
            [
              -0.699353071399787,
              44.87459667797046
            ],
            [
              -0.699739071716128,
              44.87453265598149
            ],
            [
              -0.700827766466413,
              44.87434754349977
            ],
            [
              -0.7024092,
              44.87406110000001
            ],
            [
              -0.703035236853365,
              44.87395031780203
            ],
            [
              -0.70301021033801,
              44.87390968769491
            ],
            [
              -0.702974651566595,
              44.87380856751401
            ],
            [
              -0.702425892359496,
              44.8738547800522
            ],
            [
              -0.70233635675,
              44.873794600707235
            ],
            [
              -0.702242762758533,
              44.87378028470744
            ],
            [
              -0.702015707637642,
              44.873609985618664
            ],
            [
              -0.702027822768341,
              44.87358710496557
            ],
            [
              -0.701941498313905,
              44.87350124153054
            ],
            [
              -0.701815722754443,
              44.87340390578719
            ],
            [
              -0.701712186817604,
              44.87336279425542
            ],
            [
              -0.701548474359503,
              44.873111713656215
            ]
          ]
        ],
        "type": "MultiLineString"
      }
    },
    {
      "type": "Feature",
      "properties": {
        "Ligne": 4,
        "Long": 1294.356,
        "note": "chemin alternatif, praticable avec peu d’aménagements"
      },
      "geometry": {
        "coordinates": [
          [
            [
              -0.709556152289309,
              44.8760317195214
            ],
            [
              -0.709644388918559,
              44.87586600837184
            ],
            [
              -0.709672364638009,
              44.87579454317196
            ],
            [
              -0.709660404774836,
              44.87572906331368
            ],
            [
              -0.709629825349402,
              44.87569520808436
            ],
            [
              -0.709661063887215,
              44.875623633816375
            ],
            [
              -0.709738224569086,
              44.87557067579974
            ],
            [
              -0.709890487779481,
              44.87520285984366
            ],
            [
              -0.709962281888076,
              44.8750028206389
            ],
            [
              -0.710040577407822,
              44.87476923666299
            ],
            [
              -0.710087491606283,
              44.87465451015711
            ],
            [
              -0.710084716396294,
              44.87462902613328
            ],
            [
              -0.710126625274932,
              44.87455399475082
            ],
            [
              -0.710175952895528,
              44.874525218598414
            ],
            [
              -0.710304007228036,
              44.87430237161792
            ],
            [
              -0.710433789026727,
              44.874056215064726
            ],
            [
              -0.710496087799709,
              44.87381153979178
            ],
            [
              -0.710587444030016,
              44.8735612425137
            ],
            [
              -0.710796847962858,
              44.873282970903986
            ],
            [
              -0.711056493905274,
              44.87305572233649
            ],
            [
              -0.711214837721821,
              44.87289541569385
            ],
            [
              -0.711254710983801,
              44.87277317356452
            ],
            [
              -0.7112686,
              44.8726924
            ],
            [
              -0.7112326,
              44.8726391
            ],
            [
              -0.7111385,
              44.8725911
            ],
            [
              -0.7110701,
              44.8725279
            ],
            [
              -0.7110237,
              44.87249880000001
            ],
            [
              -0.7110034,
              44.87242349999998
            ],
            [
              -0.7107752,
              44.8724536
            ],
            [
              -0.7094829,
              44.8729998
            ],
            [
              -0.7088446,
              44.8732303
            ],
            [
              -0.7084865,
              44.8733672
            ],
            [
              -0.708415,
              44.8734146
            ],
            [
              -0.70828,
              44.87346320000002
            ],
            [
              -0.7082209,
              44.8734737
            ],
            [
              -0.707463105204968,
              44.87367032279114
            ],
            [
              -0.706765323273589,
              44.87376648883922
            ],
            [
              -0.7065349,
              44.8737829
            ],
            [
              -0.7059628,
              44.8737964
            ],
            [
              -0.705593,
              44.8737847
            ],
            [
              -0.705508201587918,
              44.873756933811094
            ],
            [
              -0.705449121454054,
              44.87374534323019
            ],
            [
              -0.7053753,
              44.8737325
            ],
            [
              -0.705295899356898,
              44.87373137932427
            ],
            [
              -0.70522942548137,
              44.87374262691308
            ],
            [
              -0.705148747262483,
              44.87376496989673
            ],
            [
              -0.704773070324414,
              44.87377051396481
            ],
            [
              -0.704307381373107,
              44.87378137628527
            ],
            [
              -0.703868207919698,
              44.87379231849079
            ],
            [
              -0.70368923278925,
              44.87370588819109
            ],
            [
              -0.703540505796376,
              44.87371563158578
            ],
            [
              -0.703533570647827,
              44.87376896878243
            ],
            [
              -0.703468522663905,
              44.87384708094069
            ],
            [
              -0.703048610027668,
              44.87393824576192
            ],
            [
              -0.703026498808236,
              44.87390875661853
            ],
            [
              -0.702993853382009,
              44.87379397582472
            ],
            [
              -0.702431499352859,
              44.87384064205518
            ],
            [
              -0.702346441729333,
              44.873782250938454
            ],
            [
              -0.702250723592277,
              44.873768780867636
            ],
            [
              -0.702035751589572,
              44.87360815434627
            ],
            [
              -0.702052217086686,
              44.873585128555
            ],
            [
              -0.701954531925928,
              44.87349228115941
            ],
            [
              -0.701826971905046,
              44.873392679808234
            ],
            [
              -0.701723877729241,
              44.87335000344951
            ],
            [
              -0.701562850631677,
              44.873106583796044
            ]
          ]
        ],
        "type": "MultiLineString"
      }
    },
    {
      "type": "Feature",
      "properties": {
        "Ligne": 1,
        "Long": 1203.206,
        "note": "chemin raccourci - trop dangereux dans l'état"
      },
      "geometry": {
        "coordinates": [
          [
            [
              -0.706814795518068,
              44.86681088932187
            ],
            [
              -0.706425108804898,
              44.86693144662025
            ],
            [
              -0.706253480694805,
              44.86701816594431
            ],
            [
              -0.706112732209062,
              44.86709190476181
            ],
            [
              -0.706195669282748,
              44.867188707654506
            ],
            [
              -0.706119181448531,
              44.86721781539507
            ],
            [
              -0.706006075334295,
              44.86722955918215
            ],
            [
              -0.705919635380744,
              44.867277586187626
            ],
            [
              -0.70570440970843,
              44.86741090061566
            ],
            [
              -0.705573478528751,
              44.86780294500363
            ],
            [
              -0.705533687809405,
              44.86790716617598
            ],
            [
              -0.705328873174755,
              44.868480909409165
            ],
            [
              -0.70531729457719,
              44.86853174648618
            ],
            [
              -0.705298562849085,
              44.868643893994346
            ],
            [
              -0.704879903115342,
              44.86880656983677
            ],
            [
              -0.704794103805931,
              44.86881674158414
            ],
            [
              -0.703194677627804,
              44.868936879778786
            ],
            [
              -0.70312535634908,
              44.868997596162785
            ],
            [
              -0.70304140144746,
              44.869058800873134
            ],
            [
              -0.703122345366369,
              44.86966307175967
            ],
            [
              -0.702993020008256,
              44.86965904448673
            ],
            [
              -0.703047181656749,
              44.870122330142394
            ],
            [
              -0.703029655436198,
              44.870253123518935
            ],
            [
              -0.703213893992747,
              44.87155836070775
            ],
            [
              -0.7033846,
              44.872731
            ],
            [
              -0.703515477251292,
              44.87370410062142
            ],
            [
              -0.703511097840633,
              44.87376160059967
            ],
            [
              -0.703454812229758,
              44.873833621272766
            ],
            [
              -0.703057844824489,
              44.8739212739862
            ],
            [
              -0.703044554142483,
              44.873901566167405
            ],
            [
              -0.703006394136674,
              44.873785806824024
            ],
            [
              -0.702964343008715,
              44.8737844973925
            ],
            [
              -0.702436588060975,
              44.87382690887601
            ],
            [
              -0.702355260494585,
              44.87376723073645
            ],
            [
              -0.702259695473472,
              44.87375608071856
            ],
            [
              -0.702057299361675,
              44.87360433527292
            ],
            [
              -0.702073527220583,
              44.873585967711435
            ],
            [
              -0.701968627612332,
              44.873482897829284
            ],
            [
              -0.701837056924225,
              44.87338033008723
            ],
            [
              -0.70174247684525,
              44.87334279507092
            ],
            [
              -0.701576963723397,
              44.873105725490895
            ]
          ]
        ],
        "type": "MultiLineString"
      }
    },
    {
      "type": "Feature",
      "properties": {
        "Ligne": 2,
        "Long": 1372.169,
        "note": "chemin inchangé - trop dangereux dans l'état"
      },
      "geometry": {
        "coordinates": [
          [
            [
              -0.708093773219373,
              44.867030654422116
            ],
            [
              -0.708069750009315,
              44.86709832963975
            ],
            [
              -0.708149710228054,
              44.86730923532071
            ],
            [
              -0.7081668137266,
              44.867376361873745
            ],
            [
              -0.707860426197931,
              44.86744874708983
            ],
            [
              -0.707876893213631,
              44.86767582736495
            ],
            [
              -0.707858319925673,
              44.86770374581873
            ],
            [
              -0.707900817088449,
              44.867741239512696
            ],
            [
              -0.707943468205739,
              44.868094138795186
            ],
            [
              -0.707953867877068,
              44.8681527254192
            ],
            [
              -0.707898420278181,
              44.86819116900768
            ],
            [
              -0.70793398782978,
              44.86821030855414
            ],
            [
              -0.708238609041993,
              44.86821000198074
            ],
            [
              -0.70829680336272,
              44.86822548119031
            ],
            [
              -0.708351210398175,
              44.8683566669563
            ],
            [
              -0.708440163863183,
              44.868343239475294
            ],
            [
              -0.708542658988273,
              44.86863937095821
            ],
            [
              -0.708572010751714,
              44.868861572852666
            ],
            [
              -0.708276003917966,
              44.86886520853064
            ],
            [
              -0.708255126716512,
              44.86979201111682
            ],
            [
              -0.708129140043291,
              44.86979413569039
            ],
            [
              -0.708101286575369,
              44.86977212247596
            ],
            [
              -0.708050294431745,
              44.869755054152364
            ],
            [
              -0.706750233196185,
              44.86975997108457
            ],
            [
              -0.706711746747713,
              44.869771332447606
            ],
            [
              -0.706689186093374,
              44.86980928860613
            ],
            [
              -0.706689791108282,
              44.86999993120985
            ],
            [
              -0.70671302310746,
              44.87002163163815
            ],
            [
              -0.706712490019135,
              44.87009605445194
            ],
            [
              -0.706694549436588,
              44.870121455439374
            ],
            [
              -0.706683491601982,
              44.870152051866846
            ],
            [
              -0.706678145583254,
              44.87091255670235
            ],
            [
              -0.706695093502687,
              44.870954618434034
            ],
            [
              -0.706685370916125,
              44.87105492497296
            ],
            [
              -0.706677646862968,
              44.8714659607778
            ],
            [
              -0.706692689961245,
              44.87149568531298
            ],
            [
              -0.706717572123107,
              44.871525856225475
            ],
            [
              -0.706765139618308,
              44.87155294416421
            ],
            [
              -0.706756723615452,
              44.87164003118879
            ],
            [
              -0.70665437677094,
              44.87165817606993
            ],
            [
              -0.706587648999656,
              44.871687531888014
            ],
            [
              -0.706410208616353,
              44.871822892679916
            ],
            [
              -0.706205089026169,
              44.871984754387725
            ],
            [
              -0.706132725101291,
              44.87206080130446
            ],
            [
              -0.70610263752854,
              44.87211683492661
            ],
            [
              -0.706103578421763,
              44.872164081696255
            ],
            [
              -0.705987990188217,
              44.8721632918691
            ],
            [
              -0.705974266967969,
              44.87221955396498
            ],
            [
              -0.705969862311276,
              44.87284594341602
            ],
            [
              -0.705948219374954,
              44.872897819698196
            ],
            [
              -0.705897379902602,
              44.87293672010638
            ],
            [
              -0.705757148511542,
              44.87300628107865
            ],
            [
              -0.705669851209231,
              44.87306134190775
            ],
            [
              -0.705609583134331,
              44.87312592915435
            ],
            [
              -0.705485763941131,
              44.873338646007596
            ],
            [
              -0.705358838930554,
              44.873593182833396
            ],
            [
              -0.705334242882739,
              44.873664922044654
            ],
            [
              -0.70529167118289,
              44.87371727349308
            ],
            [
              -0.705229510006944,
              44.87373330003582
            ],
            [
              -0.705146030996886,
              44.873756626282756
            ],
            [
              -0.704803420555219,
              44.87375953979151
            ],
            [
              -0.704306796561785,
              44.87376991878297
            ],
            [
              -0.70387783629425,
              44.87377978279251
            ],
            [
              -0.703691234205283,
              44.87369095178378
            ],
            [
              -0.703529303358491,
              44.87370432220602
            ],
            [
              -0.703521557625146,
              44.87376318913485
            ],
            [
              -0.703462910364155,
              44.87384071399319
            ],
            [
              -0.703051541055181,
              44.873933110117804
            ],
            [
              -0.703032845758873,
              44.87390583213853
            ],
            [
              -0.702999656522813,
              44.873791069493336
            ],
            [
              -0.702433393866662,
              44.87383631606364
            ],
            [
              -0.70235162455562,
              44.87377820276182
            ],
            [
              -0.702254275028588,
              44.87376478712451
            ],
            [
              -0.702042251640892,
              44.873607549968646
            ],
            [
              -0.702058717135164,
              44.87358452417643
            ],
            [
              -0.701960360602573,
              44.87348976155687
            ],
            [
              -0.701829979552668,
              44.873388704220034
            ],
            [
              -0.701730148149834,
              44.87334591902163
            ],
            [
              -0.70156779578391,
              44.87310719388799
            ]
          ]
        ],
        "type": "MultiLineString"
      }
    },
    {
      "type": "Feature",
      "properties": {
        "Ligne": 3,
        "Long": 1495.462,
        "note": "chemin raccourci - trop dangereux dans l'état"
      },
      "geometry": {
        "coordinates": [
          [
            [
              -0.710049007569131,
              44.86681622690447
            ],
            [
              -0.710166479821935,
              44.8676074034849
            ],
            [
              -0.710178305494918,
              44.8677697692145
            ],
            [
              -0.71037918870959,
              44.869175974224746
            ],
            [
              -0.710364103483702,
              44.86919507995237
            ],
            [
              -0.710374975271194,
              44.86926059596478
            ],
            [
              -0.710398668638261,
              44.86928925570924
            ],
            [
              -0.710452411288567,
              44.86967343531884
            ],
            [
              -0.7105596,
              44.8704691
            ],
            [
              -0.710619479905552,
              44.87078237607362
            ],
            [
              -0.710595322522324,
              44.870812635967155
            ],
            [
              -0.710613831732006,
              44.870911223938826
            ],
            [
              -0.709981003040383,
              44.87086633570579
            ],
            [
              -0.709680654367904,
              44.87084244405944
            ],
            [
              -0.709462828735951,
              44.8708284122595
            ],
            [
              -0.709325506392953,
              44.87081207644708
            ],
            [
              -0.70919060087822,
              44.870815811068546
            ],
            [
              -0.708938559755814,
              44.87084477487188
            ],
            [
              -0.708600356156516,
              44.87092234602715
            ],
            [
              -0.708417402820338,
              44.8709741887504
            ],
            [
              -0.708270272653613,
              44.87104033504225
            ],
            [
              -0.708166169586697,
              44.87111434387858
            ],
            [
              -0.707962042977825,
              44.87127462576128
            ],
            [
              -0.707870401912236,
              44.871339304752524
            ],
            [
              -0.707822660172222,
              44.871392053555724
            ],
            [
              -0.707662346650768,
              44.87148964162978
            ],
            [
              -0.707546979894838,
              44.87159115305233
            ],
            [
              -0.707455947704869,
              44.871698051712904
            ],
            [
              -0.707422175729138,
              44.871764284525874
            ],
            [
              -0.707413994024053,
              44.87182191180066
            ],
            [
              -0.707409690186557,
              44.872119675922924
            ],
            [
              -0.707421894416625,
              44.872139419544716
            ],
            [
              -0.70745362368168,
              44.87215773575705
            ],
            [
              -0.707445799657477,
              44.872220776461035
            ],
            [
              -0.707421705498488,
              44.87223553242761
            ],
            [
              -0.707422979402924,
              44.87266719441785
            ],
            [
              -0.707429339176909,
              44.87291189872595
            ],
            [
              -0.707458944827481,
              44.872931060960425
            ],
            [
              -0.707472449023484,
              44.87300346477337
            ],
            [
              -0.707144116838819,
              44.872999708184395
            ],
            [
              -0.707002578256303,
              44.87300211146135
            ],
            [
              -0.706946702955308,
              44.87299777763628
            ],
            [
              -0.706211886294359,
              44.87299519582784
            ],
            [
              -0.706084945965477,
              44.873004085830246
            ],
            [
              -0.705969052076703,
              44.873028849416265
            ],
            [
              -0.705886288852111,
              44.87292899792031
            ],
            [
              -0.705727607935471,
              44.87300663734931
            ],
            [
              -0.705651454093651,
              44.87305454633614
            ],
            [
              -0.705586754410963,
              44.87311923821979
            ],
            [
              -0.705393562055767,
              44.873483711752215
            ],
            [
              -0.70532048681057,
              44.87365658026145
            ],
            [
              -0.705284356946939,
              44.87370361866654
            ],
            [
              -0.705216987577755,
              44.87372392413411
            ],
            [
              -0.705140990591422,
              44.87374929715251
            ],
            [
              -0.70478188026324,
              44.87375119699469
            ],
            [
              -0.704310764002111,
              44.87376397345228
            ],
            [
              -0.703881107588829,
              44.87377276985571
            ],
            [
              -0.70369017418332,
              44.87368620764699
            ],
            [
              -0.703524552283197,
              44.8737002323143
            ],
            [
              -0.703516612393907,
              44.87376257912976
            ],
            [
              -0.703461074777708,
              44.87383767504834
            ],
            [
              -0.703054446561198,
              44.87392758779955
            ],
            [
              -0.703039269271384,
              44.87390406768032
            ],
            [
              -0.703002766190906,
              44.87378864056909
            ],
            [
              -0.70296356165494,
              44.87378917377414
            ],
            [
              -0.70243526286352,
              44.87383160339788
            ],
            [
              -0.702353468041342,
              44.873773103423346
            ],
            [
              -0.702257775433595,
              44.87376002003282
            ],
            [
              -0.702050281027721,
              44.87360534446765
            ],
            [
              -0.702066899602072,
              44.87358463871967
            ],
            [
              -0.701965670996005,
              44.87348764676984
            ],
            [
              -0.701833505482556,
              44.87338432381652
            ],
            [
              -0.701737684740128,
              44.873344505032414
            ],
            [
              -0.701571449268442,
              44.87310474686468
            ]
          ]
        ],
        "type": "MultiLineString"
      }
    },
    {
      "type": "Feature",
      "properties": {
        "Ligne": 8,
        "Long": 1134.588,
        "note": "chemin alternatif, praticable avec peu d’aménagements"
      },
      "geometry": {
        "coordinates": [
          [
            [
              -0.692357565233381,
              44.87002747867935
            ],
            [
              -0.69240752196576,
              44.8700413172028
            ],
            [
              -0.693011789296108,
              44.87028007280662
            ],
            [
              -0.693957105172554,
              44.870533823745134
            ],
            [
              -0.694454816203361,
              44.87062731021498
            ],
            [
              -0.694576209843086,
              44.87066667097431
            ],
            [
              -0.695135792438639,
              44.87088863621493
            ],
            [
              -0.695472372426479,
              44.871034427928706
            ],
            [
              -0.695483790284362,
              44.87105884918037
            ],
            [
              -0.69558754798295,
              44.871078645009966
            ],
            [
              -0.6955169147102391,
              44.87133166378102
            ],
            [
              -0.6955471259953878,
              44.871889217109164
            ],
            [
              -0.6955844921252319,
              44.87200563270528
            ],
            [
              -0.6958746288993682,
              44.8724397698461
            ],
            [
              -0.6962144942164286,
              44.87289398589706
            ],
            [
              -0.6962637687368147,
              44.87310826741593
            ],
            [
              -0.696272823877346,
              44.87317433666369
            ],
            [
              -0.6962768573773379,
              44.87326799669626
            ],
            [
              -0.6961863695562197,
              44.87438222442217
            ],
            [
              -0.696260798535866,
              44.87440396033134
            ],
            [
              -0.6963874693424053,
              44.87442345251623
            ],
            [
              -0.6971435965624382,
              44.87449033210232
            ],
            [
              -0.6986163150704582,
              44.8746228854575
            ],
            [
              -0.6986941950661627,
              44.8746344937086
            ],
            [
              -0.6988775153787801,
              44.874636931857125
            ],
            [
              -0.6990773865851933,
              44.87463099375282
            ],
            [
              -0.6993511812757116,
              44.874597862315014
            ],
            [
              -0.7026612328705655,
              44.87401787063958
            ],
            [
              -0.7030364367450388,
              44.87394853911383
            ],
            [
              -0.7030107190049468,
              44.87391053400644
            ],
            [
              -0.7029738329247275,
              44.87380891814552
            ],
            [
              -0.7024223417916846,
              44.87385333621971
            ],
            [
              -0.7023334745206575,
              44.87379230129961
            ],
            [
              -0.7022409864669856,
              44.873778810984405
            ],
            [
              -0.7020167631096335,
              44.87360936130866
            ],
            [
              -0.7020278944663191,
              44.87358717917864
            ],
            [
              -0.7018254506282271,
              44.87340859853197
            ],
            [
              -0.7017119964547536,
              44.87336182141439
            ],
            [
              -0.7015493716670265,
              44.87311896917663
            ]
          ]
        ],
        "type": "MultiLineString"
      }
    },
    {
      "type": "Feature",
      "properties": {
        "Ligne": 5,
        "Long": 1018.081,
        "note": "chemin raccourci - trop dangereux dans l'état"
      },
      "geometry": {
        "coordinates": [
          [
            [
              -0.706601728332674,
              44.87787741188921
            ],
            [
              -0.706611868032643,
              44.87783289514138
            ],
            [
              -0.707047090193162,
              44.87770519977459
            ],
            [
              -0.707238665876591,
              44.877651521825875
            ],
            [
              -0.70727562451708,
              44.8776169598398
            ],
            [
              -0.707276690074764,
              44.87758359691042
            ],
            [
              -0.70735476110547,
              44.87756083738725
            ],
            [
              -0.707397574509344,
              44.8775818836745
            ],
            [
              -0.707606288656311,
              44.87747415375862
            ],
            [
              -0.707648057588396,
              44.87744640641844
            ],
            [
              -0.70765578661235,
              44.877394580821
            ],
            [
              -0.707694395391762,
              44.87714446266623
            ],
            [
              -0.707657786774205,
              44.87706727688702
            ],
            [
              -0.707589980899426,
              44.87696072995327
            ],
            [
              -0.707518860406141,
              44.876893458807736
            ],
            [
              -0.707334037517397,
              44.87663689009698
            ],
            [
              -0.707154421556475,
              44.876525082294435
            ],
            [
              -0.70702479407367,
              44.87634494974706
            ],
            [
              -0.70700250826109,
              44.87630461635048
            ],
            [
              -0.70696613422644,
              44.876265528616045
            ],
            [
              -0.706931205566066,
              44.87623181796657
            ],
            [
              -0.706861676813396,
              44.87620236329651
            ],
            [
              -0.706554108040101,
              44.87618318474294
            ],
            [
              -0.706534807628433,
              44.876221031962714
            ],
            [
              -0.706145308124752,
              44.87619916341383
            ],
            [
              -0.70613230090703,
              44.87615076945451
            ],
            [
              -0.706002149969565,
              44.87609466187985
            ],
            [
              -0.70606483269645,
              44.876020488556186
            ],
            [
              -0.706096061121741,
              44.87596519189867
            ],
            [
              -0.706311773390759,
              44.87573244704575
            ],
            [
              -0.706213149754764,
              44.87569156288771
            ],
            [
              -0.70631477532774,
              44.87556338515833
            ],
            [
              -0.706316418162977,
              44.87552225246401
            ],
            [
              -0.706293184041028,
              44.87550055191491
            ],
            [
              -0.706339383287519,
              44.875440879904005
            ],
            [
              -0.705993364055287,
              44.875309920075054
            ],
            [
              -0.70583980526211,
              44.875315048264575
            ],
            [
              -0.70560811885745,
              44.87535185999102
            ],
            [
              -0.70551527698323,
              44.87532589287269
            ],
            [
              -0.705453303016683,
              44.875281983858166
            ],
            [
              -0.70540034690257,
              44.87528218542788
            ],
            [
              -0.705282200214926,
              44.87517820287024
            ],
            [
              -0.705289655538229,
              44.87514975920341
            ],
            [
              -0.705226604303619,
              44.87509192927897
            ],
            [
              -0.705151195252234,
              44.875053950376994
            ],
            [
              -0.70504658111848,
              44.875020344840806
            ],
            [
              -0.704948087905356,
              44.87499239651598
            ],
            [
              -0.703993878866998,
              44.87510250218717
            ],
            [
              -0.704005894168353,
              44.87516669870148
            ],
            [
              -0.703980750559868,
              44.87519993533002
            ],
            [
              -0.703829376868313,
              44.875215294337956
            ],
            [
              -0.703586909402069,
              44.87408032928612
            ],
            [
              -0.703562553852891,
              44.874041614522014
            ],
            [
              -0.703480759680467,
              44.874007916954604
            ],
            [
              -0.703407482034882,
              44.874004162114275
            ],
            [
              -0.703354569874777,
              44.87387959457548
            ],
            [
              -0.703046248320547,
              44.87394374993314
            ],
            [
              -0.70302165565246,
              44.873909693287594
            ],
            [
              -0.70298758300331,
              44.87379806032454
            ],
            [
              -0.702430174154654,
              44.87384533657701
            ],
            [
              -0.702343485129198,
              44.873786999889504
            ],
            [
              -0.702247715954088,
              44.87377275646768
            ],
            [
              -0.702028656713499,
              44.873608003516914
            ],
            [
              -0.702044654958161,
              44.8735861558914
            ],
            [
              -0.701951031511868,
              44.873497048241134
            ],
            [
              -0.701822307359406,
              44.873396323144725
            ],
            [
              -0.701719859021229,
              44.87335517533841
            ],
            [
              -0.70155914612607,
              44.87310825747044
            ]
          ]
        ],
        "type": "MultiLineString"
      }
    },
    {
      "type": "Feature",
      "properties": {
        "Ligne": 6,
        "Long": 876.584,
        "note": "chemin inchangé- praticable avec peu d’aménagements"
      },
      "geometry": {
        "coordinates": [
          [
            [
              -0.704591036831489,
              44.87982870593393
            ],
            [
              -0.704599986723463,
              44.87912233346126
            ],
            [
              -0.704610347270554,
              44.87889954729397
            ],
            [
              -0.70460847303038,
              44.878854656766
            ],
            [
              -0.704593224793506,
              44.87882183848495
            ],
            [
              -0.704574596081116,
              44.87880385906069
            ],
            [
              -0.704551810462796,
              44.8786899117908
            ],
            [
              -0.704568324874609,
              44.87864285732091
            ],
            [
              -0.704568049036004,
              44.8786056639727
            ],
            [
              -0.70450512101945,
              44.87832952049375
            ],
            [
              -0.704450910367598,
              44.87803680991756
            ],
            [
              -0.704372439662538,
              44.877657328188285
            ],
            [
              -0.704299791100117,
              44.877366008162625
            ],
            [
              -0.704249656914944,
              44.87720104527391
            ],
            [
              -0.704218937237673,
              44.87709898866268
            ],
            [
              -0.704225070093558,
              44.87707630742357
            ],
            [
              -0.704127714264874,
              44.876625376218165
            ],
            [
              -0.704061052745534,
              44.876358658056056
            ],
            [
              -0.704042695743031,
              44.87632826868109
            ],
            [
              -0.704033867528376,
              44.87624408263442
            ],
            [
              -0.704043110123333,
              44.87621897245638
            ],
            [
              -0.703953712618955,
              44.87578947714588
            ],
            [
              -0.703837285311874,
              44.87524772643226
            ],
            [
              -0.703781982515996,
              44.87502093190246
            ],
            [
              -0.703727476995596,
              44.874773184364315
            ],
            [
              -0.703716867156354,
              44.87471153432674
            ],
            [
              -0.703586909402069,
              44.87408032928612
            ],
            [
              -0.703562553852891,
              44.874041614522014
            ],
            [
              -0.703480759680467,
              44.874007916954604
            ],
            [
              -0.703407482034882,
              44.874004162114275
            ],
            [
              -0.703354569874777,
              44.87387959457548
            ],
            [
              -0.703043317291995,
              44.87394888557715
            ],
            [
              -0.703015673855726,
              44.8739098929018
            ],
            [
              -0.702981363664497,
              44.87380291817212
            ],
            [
              -0.702427786874207,
              44.873850454060744
            ],
            [
              -0.702340503012583,
              44.873791362166315
            ],
            [
              -0.702245821428124,
              44.873777082455966
            ],
            [
              -0.70202161286487,
              44.8736086260356
            ],
            [
              -0.702036523518665,
              44.87358681469497
            ],
            [
              -0.701946859735412,
              44.87349990009296
            ],
            [
              -0.701818186608311,
              44.87339994834018
            ],
            [
              -0.701715245494711,
              44.873359592018964
            ],
            [
              -0.701599339639824,
              44.87318054650673
            ],
            [
              -0.701554923338071,
              44.87311033595863
            ]
          ]
        ],
        "type": "MultiLineString"
      }
    }
  ]
}
