{
  "type": "FeatureCollection",
  "features": [
    {
      "type": "Feature",
      "properties": {
        "fid": "v1",
        "Notes": "tonte nécessaire",
        "Photo": "20250904_151033.jpg"
      },
      "geometry": {
        "coordinates": [
          [
            -0.7010527520680228,
            44.87236821654312
          ],
          [
            -0.7006319198114568,
            44.87237014064297
          ]
        ],
        "type": "LineString"
      }
    },
    {
      "type": "Feature",
      "properties": {
        "fid": "v2",
        "Notes": "haie à entretenir",
        "Photo": "20250904_151234.jpg"
      },
      "geometry": {
        "coordinates": [
          [
            -0.7005586135480542,
            44.87237302679296
          ],
          [
            -0.7003631301770099,
            44.87237302679296
          ],
          [
            -0.7003604151301772,
            44.87240958467524
          ]
        ],
        "type": "LineString"
      }
    },
    {
      "type": "Feature",
      "properties": {
        "fid": "v3",
        "Notes": "tonte nécessaire",
        "Photo": "20250904_152313.jpg"
      },
      "geometry": {
        "coordinates": [
          [
            -0.6988108374159197,
            44.87103972340586
          ],
          [
            -0.699138590199766,
            44.87103972340586
          ]
        ],
        "type": "LineString"
      }
    },
    {
      "type": "Feature",
      "properties": {
        "Notes": "tonte nécessaire",
        "Photo": "20250904_153127.jpg",
        "fid": "v4"
      },
      "geometry": {
        "coordinates": [
          [
            -0.6987339728749475,
            44.87135649697231
          ],
          [
            -0.6983378193154408,
            44.87136298297452
          ],
          [
            -0.6979429732368487,
            44.87137132211427
          ]
        ],
        "type": "LineString"
      }
    },
    {
      "type": "Feature",
      "properties": {
        "fid": "v5",
        "Notes": "tonte nécessaire",
        "Photo": "20250904_153527.jpg"
      },
      "geometry": {
        "coordinates": [
          [
            -0.6971946783997396,
            44.87131449970957
          ],
          [
            -0.6968581138235379,
            44.8712057340405
          ],
          [
            -0.6964838540494611,
            44.8710807486718
          ]
        ],
        "type": "LineString"
      }
    },
    {
      "type": "Feature",
      "properties": {
        "fid": "v6",
        "Notes": "tonte nécessaire",
        "Photo": "20250904_153734.jpg"
      },
      "geometry": {
        "coordinates": [
          [
            -0.6960183506844544,
            44.871066652729354
          ],
          [
            -0.6955795569406291,
            44.8710545506236
          ]
        ],
        "type": "LineString"
      }
    },
    {
      "type": "Feature",
      "properties": {
        "fid": "v7",
        "Notes": "haie à entretenir",
        "Photo": "20250904_155833.jpg"
      },
      "geometry": {
        "coordinates": [
          [
            -0.7022872293209446,
            44.87407542055871
          ],
          [
            -0.7019450125481228,
            44.874131612715786
          ]
        ],
        "type": "LineString"
      }
    },
    {
      "type": "Feature",
      "properties": {
        "fid": "v8",
        "Notes": "entretien derrière l'arrêt de bus",
        "Photo": "20250904_155717.jpg"
      },
      "geometry": {
        "coordinates": [
          [
            -0.7014446728536257,
            44.874220553765355
          ],
          [
            -0.7014995999586233,
            44.874210822639554
          ]
        ],
        "type": "LineString"
      }
    },
    {
      "type": "Feature",
      "properties": {
        "fid": "v9",
        "Notes": "tonte nécessaire",
        "Photo": "20250911_143144.jpg"
      },
      "geometry": {
        "coordinates": [
          [
            -0.7036758530129532,
            44.874417183225944
          ],
          [
            -0.7037618341592804,
            44.87479957628119
          ]
        ],
        "type": "LineString"
      }
    },
    {
      "type": "Feature",
      "properties": {
        "fid": "v10",
        "Notes": "tonte nécessaire",
        "Photo": "20250911_144227.jpg"
      },
      "geometry": {
        "coordinates": [
          [
            -0.7062047586217943,
            44.87579000269463
          ],
          [
            -0.7064053618372554,
            44.87556342558662
          ]
        ],
        "type": "LineString"
      }
    },
    {
      "type": "Feature",
      "properties": {
        "fid": "v11",
        "Notes": "haie à entretenir",
        "Photo": "20250911_144522.jpg"
      },
      "geometry": {
        "coordinates": [
          [
            -0.7064475390617986,
            44.87617907938875
          ],
          [
            -0.7064532122055596,
            44.87621626602535
          ],
          [
            -0.7065588745067544,
            44.87622581394132
          ],
          [
            -0.7065723482224939,
            44.87618711974471
          ]
        ],
        "type": "LineString"
      },
      "id": 28
    },
    {
      "type": "Feature",
      "properties": {
        "fid": "v13",
        "Notes": "tonte importante nécessaire",
        "Photo": "20250911_145912.jpg"
      },
      "geometry": {
        "coordinates": [
          [
            -0.7073874531782849,
            44.87751850285812
          ],
          [
            -0.7073387519506582,
            44.87754996831029
          ],
          [
            -0.7073731292878165,
            44.877581687498605
          ],
          [
            -0.707416100958369,
            44.87758498629282
          ],
          [
            -0.7074329315298087,
            44.87757534366233
          ],
          [
            -0.7073892436640392,
            44.87751799535087
          ]
        ],
        "type": "LineString"
      }
    },
    {
      "type": "Feature",
      "properties": {
        "fid": "v15",
        "Notes": "tonte nécessaire",
        "Photo": "20250904_161529.jpg"
      },
      "geometry": {
        "coordinates": [
          [
            -0.7056788430808751,
            44.87328572321431
          ],
          [
            -0.7057393909390157,
            44.87318055551637
          ],
          [
            -0.7058035004334045,
            44.873109041371606
          ],
          [
            -0.7059495276187988,
            44.87303416175999
          ],
          [
            -0.7061952806847103,
            44.87299630124551
          ]
        ],
        "type": "LineString"
      }
    },
    {
      "type": "Feature",
      "properties": {
        "fid": "v16",
        "Photo": "20250911_154159.jpg",
        "Notes": "tonte nécessaire"
      },
      "geometry": {
        "coordinates": [
          [
            -0.7062128552580873,
            44.87196968516443
          ],
          [
            -0.7064532768254708,
            44.871789147685035
          ]
        ],
        "type": "LineString"
      }
    },
    {
      "type": "Feature",
      "properties": {
        "fid": "v17",
        "Notes": "haie à entretenir",
        "Photo": "20250911_154224.jpg"
      },
      "geometry": {
        "coordinates": [
          [
            -0.7064806661836656,
            44.871790028140055
          ],
          [
            -0.7064810374947399,
            44.87177897611096
          ],
          [
            -0.7065564136669593,
            44.871714769042796
          ],
          [
            -0.7066187939475697,
            44.87168082347327
          ]
        ],
        "type": "LineString"
      }
    },
    {
      "type": "Feature",
      "properties": {
        "fid": "v18",
        "Photo": "20250911_154430.jpg",
        "Notes": "tonte nécessaire"
      },
      "geometry": {
        "coordinates": [
          [
            -0.7067413639632605,
            44.87102251085
          ],
          [
            -0.706696860749986,
            44.871040157826656
          ],
          [
            -0.706684145545978,
            44.87109197232277
          ]
        ],
        "type": "LineString"
      }
    },
    {
      "type": "Feature",
      "properties": {
        "fid": "v19",
        "Photo": "20250911_154553.jpg",
        "Notes": "tonte nécessaire"
      },
      "geometry": {
        "coordinates": [
          [
            -0.7066944564648736,
            44.87095293629537
          ],
          [
            -0.7066978498282595,
            44.87074524890389
          ]
        ],
        "type": "LineString"
      }
    },
    {
      "type": "Feature",
      "properties": {
        "fid": "v20",
        "Notes": "tonte nécessaire",
        "Photo": "20250911_154749.jpg"
      },
      "geometry": {
        "coordinates": [
          [
            -0.7066960481768945,
            44.87037593224977
          ],
          [
            -0.7066943100185199,
            44.87013141136674
          ],
          [
            -0.7067238587012525,
            44.87009137636292
          ],
          [
            -0.7067594909366619,
            44.870089528592615
          ]
        ],
        "type": "LineString"
      }
    },
    {
      "type": "Feature",
      "properties": {
        "fid": "v21",
        "Notes": "tonte nécessaire",
        "Photo": "20250911_154929.jpg"
      },
      "geometry": {
        "coordinates": [
          [
            -0.7071724685027334,
            44.86976431620312
          ],
          [
            -0.7071724685027334,
            44.8698051292715
          ],
          [
            -0.7074930398405002,
            44.869809890794585
          ],
          [
            -0.7075122357292116,
            44.86976499642094
          ]
        ],
        "type": "LineString"
      }
    },
    {
      "type": "Feature",
      "properties": {
        "fid": "v22",
        "Notes": "haie à entretenir",
        "Photo": "20250911_155026.jpg"
      },
      "geometry": {
        "coordinates": [
          [
            -0.7081003626661868,
            44.86978025347909
          ],
          [
            -0.7080516641223937,
            44.86976206406396
          ],
          [
            -0.7077647375687377,
            44.86976299685435
          ]
        ],
        "type": "LineString"
      }
    },
    {
      "type": "Feature",
      "properties": {
        "fid": "v23",
        "Photo": "20250911_155135.jpg",
        "Notes": "tonte nécessaire"
      },
      "geometry": {
        "coordinates": [
          [
            -0.7082756132879524,
            44.86964837956748
          ],
          [
            -0.7082743165026102,
            44.869374505635705
          ]
        ],
        "type": "LineString"
      }
    },
    {
      "type": "Feature",
      "properties": {
        "fid": "v24",
        "Notes": "tonte nécessaire",
        "Photo": "20250911_155258.jpg"
      },
      "geometry": {
        "coordinates": [
          [
            -0.7082696331776788,
            44.8691700039567
          ],
          [
            -0.7082652876622717,
            44.868910277670295
          ]
        ],
        "type": "LineString"
      }
    },
    {
      "type": "Feature",
      "properties": {
        "Notes": "tonte nécessaire",
        "fid": "v25",
        "Photo": "20250904_162034.jpg"
      },
      "geometry": {
        "coordinates": [
          [
            -0.7073013681960276,
            44.872894786814584
          ],
          [
            -0.7073761373641219,
            44.872801658174296
          ],
          [
            -0.7074010604196985,
            44.872735825768984
          ],
          [
            -0.7074010604196985,
            44.87223967180364
          ]
        ],
        "type": "LineString"
      }
    },
    {
      "type": "Feature",
      "properties": {
        "fid": "v26",
        "Notes": "tonte nécessaire",
        "Photo": "20250904_162201.jpg"
      },
      "geometry": {
        "coordinates": [
          [
            -0.7074856262692322,
            44.872161467430885
          ],
          [
            -0.7074338828025475,
            44.87214784725495
          ],
          [
            -0.7074117070313548,
            44.87211851147973
          ],
          [
            -0.707414663800904,
            44.871913160637774
          ]
        ],
        "type": "LineString"
      }
    },
    {
      "type": "Feature",
      "properties": {
        "fid": "v27",
        "Notes": "tonte nécessaire",
        "Photo": "20250904_163117.jpg"
      },
      "geometry": {
        "coordinates": [
          [
            -0.7078814064483936,
            44.87141612339417
          ],
          [
            -0.7078477063976436,
            44.871417681120846
          ],
          [
            -0.7078209453813429,
            44.871398274749026
          ],
          [
            -0.7078197006833022,
            44.871378427316614
          ],
          [
            -0.7079410587773793,
            44.87128889325973
          ],
          [
            -0.707972798587349,
            44.871299919628996
          ],
          [
            -0.7080051607455573,
            44.871267722625106
          ],
          [
            -0.7079983149040459,
            44.871248316202724
          ],
          [
            -0.7081756844275162,
            44.87110938367147
          ]
        ],
        "type": "LineString"
      }
    },
    {
      "type": "Feature",
      "properties": {
        "fid": "v28",
        "Notes": "tonte nécessaire",
        "Photo": "20250911_160734.jpg"
      },
      "geometry": {
        "coordinates": [
          [
            -0.7056077602954645,
            44.867826904862284
          ],
          [
            -0.705579633763449,
            44.867794212619884
          ],
          [
            -0.7056347617651966,
            44.867620385264274
          ]
        ],
        "type": "LineString"
      }
    }
  ]
}
